id,displayName,postalCode,address1,city,country,state,intersection,phonePharmacy,phone,latitude,longitude,timezone,openDate,licenceNumber,businessAddr,pharmacyManager,email,website
1029,"STOUFFVILLE, ON",L4A 0K2,1050 Hoover Pk Dr,Stouffville,CA,ON,Highway 48 & Hoover Park Dr,905-640-9533,905-640-8848,43.955905,-79.274456,EST,11/08/2006 00:00,300943,"1050 HOOVER PARK DRIVE, STOUFFVILLE, ON L4A 0G9",Amin Hirji,,
3653,"UXBRIDGE, ONTARIO",L9P 1Z7,6 Welwood Dr,Uxbridge,CA,ON,Hwy 47 & Welwood Rd,905-862-0735,905-862-0721,44.088681,-79.134093,EST,01/30/2003 00:00,40636,"6 WELWOOD RD., UXBRIDGE, ON L9P 1Y4",Eni Rambi,,
5778,"AURORA, ON",L4G 0G2,135 First Commerce Dr,Aurora,CA,ON,Hwy. 404 & Wellington St.,905-713-6718,905-841-0300,44.014961,-79.411751,EST,01/17/2008 00:00,301268,"135 FIRST COMMERCE DRIVE, AURORA, ON L4G 0G2",Robert Tran,,
1012,KESWICK,L4P 0E2,23550 Woodbine Ave,Keswick,CA,ON,Glenwoods Ave. & Woodbine Ave.,,905-476-1729,44.219675,-79.448091,EST,10/01/2010 00:00,302079,"23550 WOODBINE AVENUE, KESWICK, ON L4P 3E9",Dieu Ly,,
1023,"PARRY SOUND, ON",P2A 3C3,1 Pine Dr,Parry Sound,CA,ON,Highway 69 & Bowes Street,,705-746-1573,45.343925,-80.010183,EST,01/25/2005 00:00,300437,"1 PINE DRIVE, PARRY SOUND, ON P2A 3C3",Sushma Mashru,,
1039,"COLLINGWOOD, ON",L9Y 0A1,10 Cambridge St,Collingwood,CA,ON,First St Extention & High St,,705-445-9262,44.500853,-80.23782,EST,01/19/2006 00:00,300702,"10 CAMBRIDGE STREET, COLLINGWOOD, ON L9Y 0A1",Alex Aitken,,
1041,"NAPANEE, ON",K7R 3L1,89 Jim Kimmett Blvd,Napanee,CA,ON,Highway 401 & Centre St North,,613-354-3100,44.2584,-76.9614,EST,01/19/2006 00:00,300701,"89 JIM KIMMETT BOULEVARD. NAPANEE, ON K7R 3L1",Pawanpreet Duggal,,
1042,HAMILTON SE,L0R 1P0,2190 Rymal Rd E,Hannon,CA,ON,Rymal Road & Swayze Road,,905-692-7000,43.173251,-79.783957,EST,01/26/2006 00:00,300703,"2190 RYMAL ROAD EAST, HAMILTON, ON L0R 1P0",Mohammad Kabir,,
1054,"BRACEBRIDGE, ON",P1L 0H1,40 Depot Dr Rr7,Bracebridge,CA,ON,HIGHWAY 11 & TAYLOR ROAD,705-646-9787,705-646-0550,45.049001,-79.292123,EST,09/19/2007 00:00,301140,"40 DEPORT DRIVE, BRACEBRIDGE, ON P1L 0A1",Earl MacNight,,
1056,"OSHAWA EAST, ON",L1J 0B5,680 Laval Dr,Oshawa,CA,ON,Highway 401 & Stevenson Road,905-404-1843,905-438-1400,43.880332,-78.88224,EST,01/17/2008 00:00,301269,"680 LAVAL DRIVE, OSHAWA, ON L1J 0B5",Dhrupadkumar Patel,,
1059,"PORT ELGIN, ON",N0H 2C0,5122 On-21,Port Elgin,CA,ON,Hwy 21 & Barnes Ave,833-812-5536,519-389-6150,44.4166,-81.4166,EST,01/17/2009 00:00,301496,"5122 HIGHWAY 21, PORT ELGIN, ON N0H 2C0",Paras Patel,,
1069,"PORT PERRY., ON",L9L 1B5,1535 Hwy 7a,Port Perry,CA,ON,6 Scugog Line & Hwy 7 A,,905-985-1531,44.093997,-78.962997,EST,07/29/2011 00:00,302361,"1535 HIGHWAY 7A, PORT PERRY, ON L9L 1B5",Deven Ramani,,
1083,"ALLISTON, ON",L9R 0G1,30 Dunham Dr,Alliston,CA,ON,Highway 89 & County Road #10,,705-435-7100,44.162388,-79.823176,EST,01/27/2010 00:00,301857,"30 DUNHAM DRIVE, ALLISTON, ON L9R 0G1",Gregory Rachevsky,,
1087,"WASAGA BEACH, ON",L9Z 0C1,100 Stonebridge Blvd,Wasaga Beach,CA,ON,Highway 92 & Main Street,705-422-0406,705-422-7100,44.524864,-80.006753,EST,07/28/2007 00:00,631445,"100 STONEBRIDGE BOULEVARD, WASAGA BEACH, ON L9Z 0C1",Gaurav Patel,,
1101,"BRADFORD,ON",L3Z 0C1,545 Holland St W,Bradford,CA,ON,Hwy 88 & 10 Sideroad,905-775-0102,905-775-1610,44.109496,-79.596744,EST,01/17/2009 00:00,301497,"545 HOLLAND STREET WEST, BRADFORD, ON L3Z 0C1",Chetankumar Patel,,
1107,"DUNDAS, ONTARIO",L9H 0C2,90 Dundas St E,Waterdown,CA,ON,Hwy. 6 & Hwy. 5 (Dundas St.),,905-690-7090,43.316638,-79.90893,EST,09/23/2009 00:00,301759,"90 DUNDAS STREET EAST, WATERDOWN , ON L9H 7K6",Danny Ricci,,
1121,Hamilton Centre,L8H 2V2,1115 Barton St E,Hamilton,CA,ON,Ottawa Street N. & Barton Street E.,,905-548-6680,43.25117,-79.815038,EST,11/16/2012 00:00,303039,"1115 BARTON STREET EAST, HAMILTON, ON L8H 2V2",Malay Vora,,
1125,Stratford,N5A 3K1,920 Ontario St,Stratford,CA,ON,Ontario St and C.H. Meier Blvd,519-272-1295,519-272-0995,43.3721,-80.9491,EST,11/29/2013 00:00,303680,"920 ONTARIO ST., STRATFORD , ON N5A 3K1",Andrea Reichert,,
1130,Fergus,N1M 2L1,801 St David St N,Fergus,CA,ON,St. David Street N. & Gordon Street,519-843-3436,519-843-1591,43.71315,-80.390007,EST,11/16/2012 00:00,303040,"801 ST. DAVID STREET NORTH, FERGUS, ON N1M 2L1",Nirav Patel,,
1161,NEWMARKET EAST,L3Y 8X2,1111 Davis Dr,Newmarket,CA,ON,Davis Drive & Leslie Street,,905-830-9243,44.066262,-79.429875,EST,08/24/2012 00:00,302899,"1111 DAVIS DRIVE, NEWMARKET, ON L3Y 8X2",Sofia Massad,,
3001,"AJAX, ONTARIO",L1Z 1G1,270 Kingston Rd E R R # 1,Ajax,CA,ON,Salem Rd & Kingston Rd,905-426-6166,905-426-6160,43.866827,-79.012721,EST,03/16/1994 00:00,36452,"270 KINGSTON RD. EAST,RR #1,  AJAX, ON L1S 4S7",Mohammed Din,,
3005,"BRANTFORD, ONTARIO",N3R 5L7,1-300 King George Rd,Brantford,CA,ON,King Georges Rd &24 Hwy,519-756-6503,519-759-3450,43.182055,-80.28124,EST,03/16/1994 00:00,3913,"BRANTFORD MALL, 300 KING GEORGE ROAD, BRANTFORD, ON N3R 5L7",Biljana Brankovic,,
3020,"CORNWALL, ONTARIO",K6J 0B3,420 Ninth St W,Cornwall,CA,ON,Brookdale Ave & 9th Ave.,613-933-3820,613-933-8366,45.024676,-74.749672,EST,03/16/1994 00:00,304345,"BROOKDALE MALL, 960 BROOKDALE AVENUE, CORNWALL, ON K6J 4P5",Nagi Sedik,,
3043,"KINGSTON, ONTARIO",K7P 2X9,1130 Midland Ave,Kingston,CA,ON,Midland Ave & Cataraqui Woods Dr,613-384-1645,613-384-9071,44.2644,-76.571595,EST,03/16/1994 00:00,3871,"1130 MIDLAND AVENUE, KINGSTON, ON K7P 2X9",Hiteshkumar Patel,,
3062,"NEWMARKET, ONTARIO",L3Y 8S4,17940 Yonge St,Newmarket,CA,ON,Bristol Rd & Yonge St,905-853-6090,905-853-8811,44.066302,-79.484973,EST,03/16/1994 00:00,33876,"17940 YONGE STREET, NEW MARKET, ON L3Y 8S4",Andrew Chan,,
3110,"WELLAND, ONTARIO",L3B 0A1,102 Primeway Dr,Welland,CA,ON,Highway 406 & Woodlawn Road,905-735-3400,905-735-3500,43.017633,-79.226707,EST,03/16/1994 00:00,34972,"102 PRIMEWAY DRIVE, WELLAND, ON L3B 0A1",Selasi Badasu,,
3113,"WHITBY, ONTARIO",L1R 3H8,4100 Baldwin St S,Whitby,CA,ON,Baldwin St & Taunton Rd,905-576-7270,905-655-0206,43.918465,-78.959866,EST,03/16/1994 00:00,4051,"4100 BALDWIN STREET SOUTH, WHITBY , ON L1R 3H8",Munib Abdulmalik ,,
3114,S. WINDSOR GATEWAY PLAZA,N9E 1S7,3120 Dougall Ave,Windsor,CA,ON,Dougall Ave & Norfolk St,519-969-5131,519-969-8121,42.269958,-83.011975,EST,03/16/1994 00:00,3855,"3120 DOUGALL AVENUE, GATEWAY PLAZA, WINDSOR, ON N9E 1S7",Abey John,,
3127,"ANCASTER, ON",L9G 3K9,1051 Garner Rd W,Ancaster,CA,ON,Highway 53 & Highway 2,905-648-3517,905-648-9980,43.198284,-80.013099,EST,11/11/1995 00:00,32396,"1051 GARNER ROAD  WEST, ANCASTER, ON L9G 3K9",Mahmood Najak,,
3128,"TEMISKAMING SHORES,ON",P0J 1P0,133 Hwy # 11,Temiskaming Shores,CA,ON,Highway 11 North,705-647-5210,705-647-6344,47.533,-79.666,EST,06/03/1995 00:00,31932,"133 HIGHWAY #11, NEW LISKEARD  , ON P0J 1P0",Patience Okonkwo ,,
3141,"BURLINGTON, S, ON",L7R 0B4,2065 Fairview St,Burlington,CA,ON,Brant St & Fairview St,905-637-3321,905-637-3100,43.338123,-79.813354,EST,01/17/2009 00:00,301501,"2065 FAIRVIEW STREET, BURLINGTON, ON L7R 0B4",Aviral Dube,,
3142,"ORANGEVILLE, ON",L9W 2E8,95 1st St,Orangeville,CA,ON,First St & Fifth Ave,519-940-9558,519-940-0018,43.928949,-80.094578,EST,10/29/1997 00:00,36052,"95 - 1ST STREET, ORANGEVILLE, ON L9W 2E8",Fayaiz Ahmed,,
3166,BARRIE NORTH ON,L4M 5A2,450 Bayfield St,Barrie,CA,ON,Bayfield St & Livingstone St W,705-728-5822,705-728-2833,44.410442,-79.70852,EST,08/20/1999 00:00,37716,"450 BAYFIELD STREET, BARRIE, ON L4M 5A2",Angela Miller,,
3645,"MIDLAND, ONTARIO",L4R 0A9,16845 Hwy # 12,Midland,CA,ON,Hwy 12 & King St,705-528-0608,705-526-4754,44.7332,-79.8731,EST,01/30/2003 00:00,40644,"16845 HWY #12, RR#1, MIDLAND, ON L4R 4K3",Susan Donaldson,,
3649,"FORT ERIE, ON",L2A 1N7,750 Garrison Rd,Fort Erie,CA,ON,Garrison Rd & Thompson Rd,905-991-1025,905-991-9971,42.905224,-78.9434,EST,01/30/2003 00:00,40652,"750 GARRISON ROAD, FORT ERIE, ON L2A 1N7",Urvi Patel,,
5742,"BOLTON, ONT",L7E 2Y3,150 Mcewan Dr E,Bolton,CA,ON,Hwy #50 & Mcewan Dr,,905-857-7004,43.864675,-79.710134,EST,01/29/2004 00:00,300127,"150 McEWAN DRIVE EAST, BOLTON , ON L7E 2Y3",Mandip Sandhur,,
5743,"HUNTSVILLE, ONT",P1H 2P4,111 Howland Dr,Huntsville,CA,ON,Hwy. 11 & Hwy.  60,,705-787-1137,45.342532,-79.231123,EST,01/29/2004 00:00,300129,"UNIT #10, 111 HOWLAND DRIVE, HUNTSVILLE , ON P1H 2P4",David Griffiths,,
1014,"ANTIGONISH, NS",B2G 3B4,# 50 Market St,Antigonish,CA,NS,,,902-867-1279,45.610495,-62.012758,AST,12/02/2004 00:00,834,"50 MARKET STREET, ANTIGONISH, NS B2G 3B4",Krista Maclaughlin,,
1016,"YARMOUTH, NS",B5A 2T5,108 Starrs Rd,Yarmouth,CA,NS,Highway 101 & Starrs Road,902-749-1067,902-749-2306,43.84338,-66.100702,AST,01/19/2006 00:00,859,"108 STARRS ROAD, YARMOUTH, NS B5A 2T5",Philip D'Endremont,,
1017,"DIGBY, NS",B0V 1A0,492 Hwy 303 Post Box 2140,Digby,CA,NS,Highway 101 & Route 303,,902-245-6020,44.599543,-65.770705,AST,01/27/2005 00:00,840,"492 HIGHWAY #303, DIGBY, NS B0V 1A0",Philip Theriault,,
1176,Dartmouth South,B2V 2J5,900 Cole Harbour Rd,Dartmouth,CA,NS,Cole Harbour Rd. & Caldwell Rd.,902-462-4339,902-462-6236,44.671012,-63.500517,AST,10/31/2012 00:00,1002,"900 COLE HARBOUR ROAD, DARTMOUTH, NS B2V 2J5",Tasha McNutt,,
1177,Greenwood,B0P 1N0,1065 Central Ave,Greenwood,CA,NS,Central Ave & Kingswood Rd,,902-765-8863,44.96622,-64.921805,AST,10/19/2012 00:00,1001,"1065 CENTRAL AVENUE, GREENWOOD, NS B0P 1N0",Matthew Langille ,,
3021,DARTMOUTH NOVA SCOTIA,B3B 0B5,90 Lamont Terr,Dartmouth,CA,NS,Hwy 118 & Wright Ave. Exit,902-469-2568,902-461-4474,44.697089,-63.568242,AST,03/16/1994 00:00,632,"90 LAMONT TERRACE, DARTMOUTH, NS B3B 0B5",Paul MacKinnon,,
3058,"N BATTLEFORD, SK",S9A 4A9,601 Carlton Trail,North Battleford,CA,SK,Carlton Trail & Territorial Drive,306-445-8108,306-445-8105,52.762646,-108.273155,CST,03/16/1994 00:00,289,"601 CARLTON TRAIL, NORTH BATTLEFORD, SK S9A 4A9",Dylan Hope,,
3061,NEW GLASGOW NOVA SCOTIA,B2H 2J6,713 Westville Rd,New Glasgow,CA,NS,Westville Rd & Highway 104,,902-928-0008,45.578191,-62.665561,AST,03/16/1994 00:00,618,"713 WESTVILLE ROAD, NEW GLASGOW, NS B2H 2J6",Sherri MacEwan,,
3068,"PORT HAWKESBURY, NS",B9A 3J9,47 Paint St Unit 17,Port Hawkesbury,CA,NS,Highway 4a & Tamarac Dr,902-625-0965,902-625-0954,45.617527,-61.332441,AST,03/16/1994 00:00,619,"17-47 PAINT STREET, PORT HAWKESBURY, NS B9A 3J9",Pamela Collins,,
3081,SACKVILLE NOVA SCOTIA,B4A 0C2,141 Damascus Rd,Bedford,CA,NS,Hwy. 102 & Duke Street Bedford/Sackville,902-865-4183,902-865-4000,44.752903,-63.643445,AST,03/16/1994 00:00,620,"141 DAMASCUS ROAD, BEDFORD, NS B4A 0C2",Tracy Thompson Doucet,,
3138,"HALIFAX, NOVA SCOTIA",B3S 1C5,220 Chain Lake Dr,Halifax,CA,NS,Highway 102 & Chain Lake Dr,902-450-5573,902-450-5570,44.654634,-63.67568,AST,09/25/1996 00:00,670,"220 CHAIN LAKE DRIVE, HALIFAX, NS B3S 1C5",Wanda Lehman,,
3184,"TRURO, NS",B2N 7H3,140 Wade Rd,Truro,CA,NS,Hwy 107 & Truro Heights Rd,902-893-5587,902-893-5582,45.354023,-63.304769,AST,11/15/2001 00:00,781,"140 WADE ROAD, TRURO, NS B2N 7H3",Kari Lennerton,,
3738,"NEW MINAS, NS",B4N 3E7,9121 Commercial St,New Minas,CA,NS,Commercial St & Jones Rd,902-681-3653,902-681-4271,45.067378,-64.453556,AST,01/30/2003 00:00,806,"9121 COMMERCIAL STREET, NEW MINAS, NS B4N 3E7",Brodie Rhodes,,
5790,WEYBURN SASKATCHEWAN,S4H 3N9,1000 Sims Ave,Weyburn,CA,SK,Sims Ave & Hwy 13,639-219-0010,306-842-6030,49.6573,-103.867,CST,11/13/2003 00:00,602,"1000 SIMS AVENUE, WEYBURN, SK S4H 3N9",Chantal Shaw ,,
1008,"DRAYTON VALLEY, AB",T7A 0A5,5217 Power Centre Blvd,Drayton Valley,CA,AB,Highway 22 & 50 Avenue,780-514-3214,780-514-3207,53.224006,-114.99993,MST,01/27/2005 00:00,1778,"5217 POWER CENTRE BLVD. P.O. BOX 7618, DRAYTON VALLEY, AB. T7A 0A5",Keith Jones,,
1009,"WHITECOURT, AB",T7S 1X6,4215 -52 Avenue,Whitecourt,CA,AB,Dahl Rd & 52nd St Extension,,780-706-3323,54.140719,-115.671272,MST,11/12/2004 00:00,1761,"5005 DAHL DRIVE, WHITECOURT, AB. T7S 1P6",Craig Dyck,,
1034,"STETTLER, ALBERTA",T0C 2L2,4721 70 St,Stettler,CA,AB,Hwy 12 & 70th St,,403-742-4404,52.321735,-112.739655,MST,09/23/2004 00:00,1749,"4721 - 70th Street, Stettler, AB. T0C 2L1",Dhavalkumar Patel,,
1048,EDSON AB,T7E 0A1,5750 2nd Ave,Edson,CA,AB,2nd Ave (Highway 16) & 58th St,780-723-6347,780-723-6357,53.576339,-116.44825,MST,01/31/2006 00:00,1900,"5750 - 2ND AVENUE, EDSON, AB. T7E 0A1",Varghese Paul,,
1049,STRATHMORE AB,T1P 0A8,200 Ranch Market,Strathmore,CA,AB,Highway 1 & Eastern Boundary Rd,403-934-3338,403-934-9776,51.038154,-113.380164,MST,01/26/2006 00:00,1863,"200 RANCH MARKET, STRATHMORE, AB. T1P 0A8",Fady Salama,,
1062,"WAINWRIGHT, AB",T9W 0A2,2901 13th Ave,Wainwright,CA,AB,Highway 14 & Highway 41,780-842-3166,780-842-3144,52.842352,-110.828452,MST,01/24/2007 00:00,1940,"2901-13TH AVE. WAINWRIGHT , AB. T9W 0A1",Parth Patel,,
1068,"PEACE RIVER, AB",T8S 0A3,9701-78 St,Peace River,CA,AB,78 Street & 97 Avenue,780-624-8970,780-624-8911,56.235488,-117.339261,MST,06/11/2008 00:00,2119,"9701 - 78 STREET, PEACE RIVER, AB. T8S 0A3",Shellyann James,,
1070,"PINCHER CREEK, AB",T0K 1W0,1100 Table Mountain St,Pincher Creek,CA,AB,Highway 3 & Table Mountain Road,403-627-1730,403-627-1790,49.498405,-113.947656,MST,01/24/2007 00:00,1941,"1100 TABLE MOUNTAIN, PINCHER CREEK , AB. T0K 1W0",Heng Liu,,
1071,"VEGRVILLE, AB",T9C 0A2,6809 Hwy 16a W,Vegreville,CA,AB,Highway 16a & Highway 16,780-632-6044,780-632-6016,53.505905,-112.085152,MST,01/24/2007 00:00,1942,"6809 HIGHWAY 16A WEST, VEGREVILLE, AB. T9C 0A2",Uzma Saeed,,
1078,"LETHBRIDGE NORTH, AB",T1H 5P3,3195 26th Ave N,Lethbridge,CA,AB,28 Avenue North & 28 Street South,403-380-6807,403-380-6722,49.727245,-112.793505,MST,11/07/2007 00:00,2019,"3055 - 26 AVENUE, LETHBRIDGE, AB. T1H 5P4",Mina Ghaly,,
1097,"CALGARY, SAGE-HILL., AB",T3R 0S4,35 Sage Hill Gate Nw,Calgary,CA,AB,Symons Valley Prkwy NW & Sage Hill Gate NW,,587-230-8411,51.169121,-114.14357,MST,01/29/2015 00:00,2864,"35 Sage Hill Gate NW, Sage Hill, AB. T3R 0S4",Mohamed Zainulabideen,,
1102,"SYLVAN LAKE, AB",T4S 0B6,3420 47th Ave,Sylvan Lake,CA,AB,47th Ave & Hwy 20,403-887-7640,403-887-7590,52.30469,-114.073904,MST,07/30/2008 00:00,2194,"3420 - 47 AVENUE, SYLVAN LAKE, AB. T4S 0B6",RHODORA PINGOL,,
3038,"HINTON, ALBERTA",T7V 1Y6,# 100 900 Carmichael Lane,Hinton,CA,AB,Hwy 16 & Carmicheal Lane,780-865-1575,780-865-1421,53.381288,-117.625884,MST,03/16/1994 00:00,1101,"PARKS WEST MALL, #100 - 900 CARMICHAEL LANE, HINTON, AB. T7V 1Y6",Stuart Richards,,
3048,"LETHBRIDGE, ALBERTA",T1K 7T6,3700 Mayor Magrath Dr S,Lethbridge,CA,AB,Highway 5 & 28th Street South,403-328-8151,403-328-6277,49.656618,-112.795529,MST,03/16/1994 00:00,346,"3700 MAYOR MAGRATH DRIVE SOUTH, LETHBRIDGE, AB. T1K 7T6",REBECCA TOONE,,
3087,"ST ALBERT, ALBERTA",T8N 7A5,700 St Albert Trail,St. Albert,CA,AB,Saint-Albert Tr and Villeneuve Rd,780-458-3597,780-458-1629,53.659867,-113.633898,MST,03/16/1994 00:00,1098,"700 ST. ALBERT ROAD., ST. ALBERT, AB. T8N 7A5",Shawna Burrell-Peacock,,
3112,"WETASKIWIN, ALBERTA",T9A 3T5,3600 56th St Suite 300,Wetaskiwin,CA,AB,Highway 2a & 36 Ave,780-352-8494,780-352-8093,52.952814,-113.390279,MST,03/16/1994 00:00,1102,"#300 DENHAM LANDING, 3600 - 56TH ST, WETASKIWIN, AB. T9A 3T5",Umar Muhammed,,
3150,"MEDICINE HAT, AB",T1B 0G4,2051 Strachan Rd S E,Medicine Hat,CA,AB,Highway 1 & Dunnmore Rd,403-526-1444,403-504-4410,49.999046,-110.651309,MST,09/26/1997 00:00,1284,"1820 STRACHAN RD. S.E. MEDICINE HAT, AB. T1B 4J8",DOUGLAS HANTIUK,,
3157,"FT. MCMURRAY, ALBERTA",T9H 5E4,# 2 Hospital St,Fort Mcmurray,CA,AB,Hospital St & Manning Ave,780-790-6080,780-790-6012,56.722087,-111.357209,MST,01/29/1999 00:00,1357,"#2 HOSPITAL STREET, FORT MCMURRAY, AB. T9H 5E4",MUHAMMAD AZEEM,,
3181,"CAMROSE, AB",T4V 4T1,6800 48th Ave,Camrose,CA,AB,48th Ave & 68rd St,,780-608-1211,53.0175,-112.865,MST,08/24/2000 00:00,1445,"UNIT#400 CORNERSTONE, 6800 48TH AVENUE, CAMROSE, AB. T4V 4T1",Hannah Schieck,,
3637,"SPRUCE GROVE, AB",T7X 4H4,90 Campsite Rd,Spruce Grove,CA,AB,Highway 16a & Campsite Rd,780-962-9053,780-962-9002,53.539308,-113.933268,MST,11/15/2001 00:00,1522,"90 CAMPSITE RD. , SPRUCE GROVE , AB. T7X 4H4",Colin O\'Shea,,
3640,"COLD LAKE, ALBERTA",T9M 1M9,4702 43rd Ave,Cold Lake,CA,AB,50th St & 43rd Ave,780-840-2343,780-840-2340,54.40707,-110.200624,MST,10/04/2001 00:00,1514,"4702-43 AVENUE, COLD LAKE, AB. T9M 1M9",Curtis Dahlseide,,
3658,BROOKS ALBERTA,T1R 1L5,917 3rd St W,Brooks,CA,AB,Upland Blvd & 3rd St W,403-501-5552,403-793-2111,50.576678,-111.900108,MST,10/03/2002 00:00,1582,"917 3RD STREET WEST, BROOKS, AB. T1R 1L5",Christen Moffatt,,
5753,FORT SASK. ALBERTA,T8L 4N3,9551 87th Ave,Fort Saskatchewan,CA,AB,Hwy 15 & Hwy 21,,780-998-3633,53.696681,-113.21119,MST,08/21/2003 00:00,1664,"9551 - 87 AVENUE, FORT SASKATCHEWAN, AB. T8L 4N3",Melanie Henderson,,
1011,"TRAIL, BC",V1R 4Y1,1601 Marcolin Dr,Trail,CA,BC,Hwy 3b & Theatre Rd,,250-364-2688,49.085001,-117.622057,PST,11/25/2004 00:00,20944,"1601 MARCOLIN DRIVE, TRAIL, BC V1R 4Y1",Marlise Swankhuizen,,
1015,"SQUAMISH, BC",V8B 0N1,39210 Discovery Way,Squamish,CA,BC,Commercial Way & Sea To Sky Highway,604-815-4630,604-815-4337,49.721527,-123.150534,PST,11/22/2006 00:00,22377,"39210 DISCOVERY WAY, SQUAMISH, BC V8B 0N1",Raelene Vandenbosch ,,
1036,"MERRITT, BC",V1K 0A4,100-3900 Crawford Ave,Merritt,CA,BC,Highway 5 & Voght Street,250-315-1371,250-315-1366,50.12188,-120.763419,PST,01/19/2006 00:00,21725,"100-3900 CRAWFORD AVE, MERRITT, BC V1K 0A4",Tracey Schmidt,,
1077,"CAMPBELL RIVER,BC",V9W 8E5,1477 Island Hwy,Campbell River,CA,BC,16 Avenue & Inland Island Highway,,250-287-3631,50.030858,-125.261673,PST,06/18/2010 00:00,25475,"1477 ISLAND HWY, CAMPBELL RIVER,BC V9W 8E5",Ryan Henderson,,
1093,"WESTBANK, BC",V4T 3E5,2170 Louie Dr,Westbank,CA,BC,Elk Rd & Louie Dr,250-768-1759,250-768-2417,49.8403,-119.61437,PST,09/17/2008 00:00,23912,"2170 LOUIE DRIVE, WESTBANK, BC V4T 3E5",Marisol Sohn,,
1100,Salmon Arm,V1E 3J9,2991 A 9th Ave Sw,Salmon Arm,CA,BC,TRANS-CANADA HIGHWAY & 30TH STREET NE,250-803-4403,250-803-4400,50.693889,-119.319022,PST,11/08/2013 00:00,30825,"2991A - 10 AVE SW, SALMON ARM, BC V1E 3J9",Dino Santos,,
1106,"WILLIAMS LAKE, BC",V2G 0A6,1205 Prosperity Way,Williams Lake,CA,BC,South Lakeside Drive (East Of Hodgson Drive),250-305-6899,250-305-6868,52.114659,-122.133808,PST,11/25/2009 00:00,24806,"1205 PROSPERITY WAY, WILLIAMS LAKE, BC V2G 0A6",Karl Ilao,,
1143,Prince Rupert,V8J 3T6,500 2nd Ave W,Prince Rupert,CA,BC,2 Ave. W. & 6 St.,833-812-5537,250-624-8686,54.31274,-130.32684,PST,10/19/2012 00:00,28958,"500 2ND AVE W, PRINCE RUPERT, BC V8J 3T6",Joseph Boucher,,
1214,VICTORIA E - HILLSIDE MALL,V8T 2C5,1644 Hillside Ave,Victoria,CA,BC,N DAIRY RD AND SHELBOURNE ST,,250-220-8318,48.44494,-123.335189,PST,06/16/2022 00:00,,,,,
3025,"DUNCAN, BC",V9L 6C6,3020 Drinkwater Rd,Duncan,CA,BC,Island Highway & Drinkwater Road,250-748-1226,250-748-2566,48.802009,-123.720732,PST,03/16/1994 00:00,15247,"3020 DRINKWATER RD. DUNCAN, BC V9L 6C6",Keyur Dalal,,
3040,KAMLOOPS BRITISH COLUMBIA,V2E 2S5,1055 Hillside Dr Unit # 100,Kamloops,CA,BC,Trans Canada Hwy & Hillside Drive,,250-374-1591,50.664865,-120.370718,PST,03/16/1994 00:00,15741,"UNIT #100 - 1055 HILLSIDE DEIVE, KAMLOOPS, BC V2E 2S5",Michelle Walker,,
3059,"NANAIMO, BRITISH COLUMBIA",V9T 6N8,6801 Island Hwy N,Nanaimo,CA,BC,Island Highway & Auld's Rd,250-390-2334,250-390-2344,49.238628,-124.049552,PST,03/16/1994 00:00,15798,"6801 ISLAND HIGHWAY NORTH, NANAIMO, BC V9T 6N8",Mark Bahm,,
3060,"NELSON, BRITISH COLUMBIA",V1L 5Z4,1000 Lakeside Dr,Nelson,CA,BC,Hwy 3a & Lakeside Dr,250-352-7842,250-352-3782,49.496487,-117.293987,PST,03/16/1994 00:00,15799,"1000 LAKESIDE DR. NELSON, BC V1L 5Z4",Ron Turk,,
3072,"POWELL RIVER, BC",V8A 5K9,50 7100 Alberni St,Powell River,CA,BC,ALBERNI ST & JOYCE AVE,604-485-0141,604-485-9811,49.846478,-124.51839,PST,03/16/1994 00:00,15778,"7100 ALBERNI ST. POWELL RIVER, BC V8A 5K9",Rene Santamaria,,
3109,VICTORIA B C / Relo 0400,V8Z 0B9,3460 Saanich Rd,Victoria,CA,BC,Douglas St & Saanich Rd,250-475-7512,250-475-3356,48.453963,-123.374367,PST,03/16/1994 00:00,15232,"3460 SAANICH RD, VICTORIA,  BC V8Z 0B9",Travis Ninowsky,,
3163,"COURTENAY, BC",V9N 2L9,3199 Cliffe Ave,Courtenay,CA,BC,Cliffe Ave & Island Highway,250-898-8955,250-898-8998,49.667754,-124.982556,PST,10/04/2001 00:00,18288,"3199 CLIFFE AVE, COURTENAY, BC V9N 2L9",Harpreet Ghai,,
3167,"CHILLIWACK, BC",V2R 0P9,8249 Eagle Landng Pkwy,Chilliwack,CA,BC,Luckakuck Way & Veddar Rd.,604-858-7180,604-792-7522,49.1372,-121.961,PST,11/27/1998 00:00,15606,"EAGLE LANDING SOUTH, 8249  EAGLE LANDING PKY, CHILLIWACK, BC V2R 0P9",Chris Choi,,
3169,"VERNON, B.C.",V1T 9T2,2200-58 Th Ave,Vernon,CA,BC,27th Street & Rimer Road,250-558-0562,250-558-0526,50.289072,-119.260541,PST,10/04/2001 00:00,18289,"2200-58 TH AVE, VERNON, B.C. V1T 9T2",Scott Gardner,,
3183,"CRANBROOK, BC",V1C 7H2,2100 Willowbrook Dr,Cranbrook,CA,BC,Cranbrook St N (Hwy 3) & Willowbrook Dr,250-489-5338,250-489-3202,49.529438,-115.749115,MST,11/16/2000 00:00,17321,"2100 WILLOWBROOK DRIVE, CRANBROOK, BC V1C 7H2",Shauna Carson,,
3188,"LANGFORD, BC",V9B 2P3,860 Langford Pkwy,Langford,CA,BC,Langford Parkway & Phipps Ave,250-391-0244,250-391-0224,48.442611,-123.50583,PST,11/15/2001 00:00,18330,"860 LANGFORD PARKWAY, VICTORIA, BC V9B 2P3",Mabel You,,
3199,"QUESNEL, B.C.",V2J 7J3,890 Rita Rd,Quesnel,CA,BC,Cariboo Hwy( #97)  & Maple Dr,833-768-1326,250-747-4464,52.965017,-122.441303,PST,10/04/2001 00:00,18290,"890 RITA RD, QUESNEL, BC V2J 7J3",Gurveer Shergill,,
3661,"FORT ST JOHN, BC",V1J 7B6,9007 96a St,Fort St. John,CA,BC,96a Street & 89th Avenue,,250-261-5544,56.2363,-120.838,MST,11/14/2002 00:00,18875,"9007 96A ST, FORT ST JOHN, BC V1J 7B6",Oseyi Oseghale,,
5776,"DAWSON CREEK, BC",V1G 0A4,# 600 Hwy 2,Dawson Creek,CA,BC,8th Street & Highway #2,,250-719-0128,55.7389,-120.22,MST,11/13/2003 00:00,20525,"#600 HIGHWAY 2, DAWSON CREEK, BC V1G 0A4",Gwendolyne Anderson,,
1046,"TABER, AB",T1G 0A4,4500 64 St,Taber,CA,AB,Highway 3 & Highway 36 North,403-223-1349,403-223-3458,49.783135,-112.127035,MST,01/23/2006 00:00,1859,"4500-64TH ST, TABER, AB. T1G 0A4",Janis Elland Held,,
3037,"HAMILTON, ONT/RELO 0401",L9C 2Z5,675 Upper James St,Hamilton,CA,ON,675 Upper James St & Fennell Ave,905-389-2322,905-389-6333,43.234378,-79.876679,EST,03/16/1994 00:00,34940,"HAMILTON MOUNTAIN PLAZA, 675 UPPER  JAMES  ST., HAMILTON, ON L9C 2Z5",Jaismeen Lamba,,
3004,"BRANDON, MANITOBA",R7A 7S1,903 18th St N,Brandon,CA,MB,Highway 10 & Kirkaldy Drive,431-210-2026,204-726-5821,49.868689,-99.958787,CST,03/16/1994 00:00,12744,"903-18TH STREETN., BRANDON, MB R7A 7S1",Todd Rowein,,
3022,"DAUPHIN, MANITOBA",R7N 3H4,1450 Main St S,Dauphin,CA,MB,Junction 5 & 10,204-638-4835,204-638-4808,51.137086,-100.062782,CST,03/16/1994 00:00,13138,"1450 MAIN STREET SOUTH, DAUPHIN, MB R7N 3H4",Srinivas Karamcheti,,
3660,"FLIN FLON, MANITOBA",R8A 0C6,200 Mb-10 Alt,Flin Flon,CA,MB,Highway 10a & Perimeter Hwy,833-812-5548,204-687-7005,54.7648,-101.833,CST,11/14/2002 00:00,32320,"200 P.T.H., #10A, FLIN FLON, MB R8A 0C6",Jennifer Kritzer,,
3069,"PORTAGE LA PRAIRIE, MAN.",R1N 0G5,2348 Sissons Dr,Portage La Prairie,CA,MB,Saskatchewan Ave & Sissons Drive,833-812-5541,204-857-5011,49.973616,-98.32402,CST,03/16/1994 00:00,13127,"2348 SISSONS DRIVE, PORTAGE LA PRAIRIE, MB R1N 0G5",Samantha Reimer or Vedant Patel,,
1027,"SELKIRK, MB",R1A 4M1,1016 Manitoba Ave,Selkirk,CA,MB,Highway 9 & Manitoba Ave,833-812-5535,204-785-1886,50.156092,-96.898182,CST,01/25/2005 00:00,32982,"1016 MANITOBA AVENUE, SELKIRK, MB R1A 4M1",Sareena Panchhi,,
1141,Steinbach,R5G 0Y1,184 Pth 12 N,Steinbach,CA,MB,Highway 12 & Golfair Road,431-215-9927,204-346-9717,49.541407,-96.688547,CST,01/25/2013 00:00,34120,"184 PTH #12 NORTH, STEINBACH, MB R5G 0Y1",Reynold Loewen,,
3102,"THOMPSON, MANITOBA",R8N 0M2,300 Mystery Lake Rd,Thompson,CA,MB,Mystery Lake Rd & Thompson Dr N,204-778-4675,204-778-4669,55.747246,-97.849511,CST,03/16/1994 00:00,13149,"300 MYSTERY LAKE ROAD, THOMPSON, MB R8N 0M2",Angelie Tan ,,
1022,"WINKLER, MB",R6W 0L8,1000 Navigator Rd Box 1720,Winkler,CA,MB,Hwy 14 & Main Street,833-812-5534,204-325-4141,49.193993,-97.936531,CST,12/02/2004 00:00,32926,"1000 NAVIGATOR ROAD, WINKLER, MB R6W 0L8",Scott Piggott,,
3740,"REXDALE, ON",M9W 3W6,2245 Islington Ave,Toronto,CA,ON,Rexdale Blvd & Islington Ave,,416-747-6499,43.71316,-79.554079,EST,10/14/2004 00:00,300376,"2245 ISLINGTON AVENUE, TORONTO , ON M9W 3W7",Uzma Saeed ,,
3055,"MISSISSAUGA (SQUARE ONE), ON",L5B 2C9,100 City Ctr Dr,Mississauga,CA,ON,HIGHWAY 10 & HIGHWAY 403,905-270-8331,905-270-9300,43.59207,-79.639292,EST,03/16/1994 00:00,15958,"SQUARE ONE S.C., 100 CITY CENTRE DRIVE, MISSISSAUGA, ON L5B 2C9",Anand Patel,,
3064,"OAKVILLE, ONTARIO",L6H 6M4,234 Hays Blvd,Oakville,CA,ON,Trafalgar Rd & Dundas St W (Hwy 5),905-257-5742,905-257-5740,43.482181,-79.718869,EST,03/16/1994 00:00,34956,"235 HAYS BOULEVARD, OAKVILLE, ON L6H 6M4",Linh Vuong ,,
1000,"MILTON, ON",L9T 6R1,1280 Steeles Ave E,Milton,CA,ON,James Snow Pkwy & Hwy 401,,905-864-6027,43.541528,-79.866803,EST,09/23/2004 00:00,300354,"1280 STEELES AVENUE EAST, MILTON , ON L9T 6R1",Hussein Adamjee,,
1115,"VAUGHAN MAPLE, ON",L6A 4R9,1900 Major Mackenzie Dr,Vaughan,CA,ON,Major Mackenzie Drive / Near Keele Street,,905-417-3766,43.859622,-79.50164,EST,07/08/2011 00:00,302362,"1900 MAJOR MacKENZIE DRIVE, MAPLE (VAUGHAN), ON L6A 4R9",Jeffrey Kwong,,
3172,"W ST. CATHARINES, ON",L2S 0C7,420 Vansickle Rd,St. Catharines,CA,ON,Vansickle Rd & Martindale St,905-687-1182,905-687-9212,43.151533,-79.267139,EST,08/20/1999 00:00,37724,"420 VANSICKLE ROAD, ST. CATHERINES, ON L2R 6P9",Chirayu Updadhyay,,
3097,"SUDBURY, ONTARIO",P3A 1Z2,1349 Lasalle Blvd,Sudbury,CA,ON,Lasalle Blvd & Barry Downe Rd,705-566-9692,705-566-3700,46.52205,-80.948862,EST,03/16/1994 00:00,35236,"1349 LASALLE BOULEVARD, SUDBURY, ON P3A 1ZA",Patricia Thompson,,
3076,"N. REGINA, NORTHGATE MALL",S4X 4P7,3939 Rochdale Blvd,Regina,CA,SK,Rochdale Blvd. & Pasqua St,639-221-4232,306-543-3237,50.495103,-104.636183,CST,03/16/1994 00:00,300,"3939 ROCHDALE BOULEVARD, REGINA, SK S4X 4P7",Christine Jalbert,,
1104,"VANCOUVER, BC",V5M 2G7,3585 Grandview Hwy,Vancouver,CA,BC,Grandview Hwy & Boundary Rd,604-435-6150,604-435-6905,49.25928,-123.027429,PST,01/21/2009 00:00,24297,"3585 GRANDVIEW HWY, VANCOUVER, BC V5M 2G7",Janet Marconato,,
3019,ABBOTSFORD EAST,V2S 8K1,1812 Vedder Way,Abbotsford,CA,BC,Vedder Way & Marshall Rd,604-854-1375,604-854-3575,49.034292,-122.271108,PST,03/16/1994 00:00,15776,"1812 VEDDER WAY, ABBOTSFORD, BC V2S 8K1",Fatin Sawalha,,
1113,"ABBOTSFORD W, BC",V2T 0C5,3122 Mt Lehman Rd,Abbotsford,CA,BC,Mt. Lehman & #1 Hwy,,604-504-2080,49.058406,-122.381234,PST,01/25/2013 00:00,29560,"GROUND LEVEL, 3122 MT LEHMAN RD, ABBOTSFORD, BC V2T 0C5",Ikechukwu Ezema,,
1213,BURNABY SW,V5H 4J1,4545 Central Blvd,Burnaby,CA,BC,Willingdon & West Central,,778-328-1120,49.224504,-122.999542,PST,10/11/2018 00:00,36249,"4545 CENTRAL BLVD, BURNABY, BC V5H 4J1",Wilson Yee,,
3008,"BURNABY, BRITISH COLUMBIA",V3J 1N5,9855 Austin Rd,Burnaby,CA,BC,Lougheed Highway & Austin Ave,,604-421-0661,49.249029,-122.895598,PST,03/16/1994 00:00,15271,"300 LOUGHEED MALL, 9855 AUSTIN AVE, BURNABY, BC V3J 1N5",August Ma,,
3042,KELOWNA BRITISH COLUMBIA,V1X 7Y8,1555 Banks Rd,Kelowna,CA,BC,Hwy 97 & Banks Rd,250-860-9145,250-860-8811,49.88809,-119.424556,PST,03/16/1994 00:00,15780,"1555 BANKS ROAD, KELOWNA, BC V1X 7Y8",Jim Farr,,
3158,LANGLEY BC,V2Y 1P3,20202 66th Ave,Langley,CA,BC,64th Ave & 202nd St,604-539-5230,604-539-5210,49.120681,-122.62259,PST,11/12/1999 00:00,15645,"20202 - 66TH AVENUE, LANGLEY, BC V2Y 1P3",Harj Pannu,,
1205,SURREY (DOWNTOWN),V3T 2W3,2151-10153 King George Blvd,Surrey,CA,BC,Central City Shopping Centre,,604-495-8697,49.18673,-122.8486,PST,02/25/2016 00:00,33944,"2151-10153 KING GEORGE BLVD, SURREY, BC V3T 2W3",Ravinder Grewal,,
5853,"SURREY, BC",V3Z 9N6,2355-160 St,Surrey,CA,BC,160 St & 24 Ave,604-541-8567,604-541-9015,49.045346,-122.781546,PST,07/30/2008 00:00,23811,"2355 160 ST, SURREY, BC V3Z 9N6",Kiren Dhaliwal,,
5838,"SURREY WEST, BC",V3W 1P8,12451 88 Ave,Surrey,CA,BC,88th Ave & 126th St,,604-597-7117,49.163161,-122.877817,PST,11/12/2004 00:00,20945,"12451 - 88 AVE, SURREY, BC V3W 1P8",Gurmeet Sukhija,,
3098,"E. SURREY, BC, GUILDFORD",V3R 7C1,10355 152 St,Surrey,CA,BC,152 St & 104 Ave,604-585-7440,604-581-1932,49.188094,-122.804659,PST,03/16/1994 00:00,15894,"1000 GUILDFORD TOWN CTR, SURREY, BC GUILDFORD / RELO 0404 V3R 7C1",Brian Kim,,
3065,"ORLEANS, OTTAWA, ON",K1W 1K9,3900 Innes Rd,Orleans,CA,ON,Innes Road & Mer Bleue Road,613-837-1166,613-837-9399,45.452382,-75.507931,EST,03/16/1994 00:00,35220,"3900 INNES ROAD, ORLEANS, ON K1C 1T1",Dumitru Musteata,,
3191,"WHITEHORSE, YT",Y1A 4P9,9021 Quartz Rd,Whitehorse,CA,YT,Quartz Rd & Second Ave,833-812-5547,867-667-2652,60.73436,-135.06886,PST,11/15/2001 00:00,2020-2813,"9021 QUARTZ RD, WHITEHORSE YK Y1A 4P9",Gennadi Gouniavyi,,
3135,"E. BRAMPTON, ON",L6T 5P9,30 Coventry Rd,Brampton,CA,ON,Highway 7 & Airport Road,905-793-9248,905-793-1983,43.740385,-79.69599,EST,03/27/1998 00:00,36460,"30 COVENTRY ROAD , BRAMPTON, ON L6T 5P9",Fatema Salem,,
3130,"N. BRAMPTON, ON",L6V 4K2,50 Quarry Edge Dr,Brampton,CA,ON,Highway 10  & Bovaird,905-874-9340,905-874-0112,43.705322,-79.782314,EST,11/11/1995 00:00,32404,"50 QUARRY EDGE DRIVE, BRAMPTON, ON L6V 4K2",Maqsoodahmed Shaikh,,
1120,Brampton NE,L6R 3S9,5085 Mayfield Rd,Brampton,CA,ON,Mayfield Rd & Bramalea Rd,905-793-8518,905-793-5478,43.773224,-79.779916,EST,01/24/2014 00:00,303727,"5085 MAYFIELD RD., BRAMPTON , ON L6R 3S9",Sally Tawfik,,
1188,BRAMPTON (S),L6W 0A6,15 Resolution Dr,Brampton,CA,ON,Steeles Ave E & Kennedy Rd,,905-452-1710,43.679509,-79.720784,EST,01/24/2014 00:00,303728,"15 RESOLUTION DR., BRAMPTON , ON L6W 0A6",Maila Cecilia J San Jose,,
1079,"BRAMPTON, ON",L6X 0Z8,9455 Mississauga Rd,Brampton,CA,ON,Williams Pkwy & Mississauga Rd,,905-451-6307,43.657293,-79.813039,EST,07/08/2011 00:00,302363,"9455 MISSISSAUGA ROAD, BRAMPTON , ON L6X 0B3",Vishal Fumtiwala,,
3016,"CHATHAM, ON",N7L 0E9,881 St Clair St,Chatham,CA,ON,Highway 40 & Pioneer Line,519-352-9874,519-352-1142,42.433295,-82.219419,EST,03/16/1994 00:00,35188,"881 ST. CLAIR STREET, CHATHAM, ON N7M 5J7",Ulonna Biodun-Adefarasin,,
3031,"ETOBICOKE, ONTARIO",M9C 1A7,165 N Queen St,Etobicoke,CA,ON,Highway 427 & Queensway,416-239-2088,416-239-7090,43.618395,-79.557519,EST,03/16/1994 00:00,34932,"165 NORTH QUEEN STREET, ETOBICOKE, ON M9C 1A7",Arif Raheem,,
3050,"N. LONDON, OAKRIDGE MALL, ON",N6G 5B1,1280 Fanshawe Pk Rd W,London,CA,ON,Fanshawe Park Rd West & Hyde Park Rd,519-472-3490,519-472-7100,43.009793,-81.329987,EST,03/16/1994 00:00,4010,"1280 FANSHAWE PARK ROAD WEST, LONDON, ON N6G 5B1",Derek Trainor,,
1157,London (Northland),N5Y 1A8,1275 Highbury Ave N,London,CA,ON,Huron Street & Highbury Avenue,,519-452-7814,43.018992,-81.215074,EST,11/16/2012 00:00,300616,"1275 HIGHBURY AVENUE NORTH, LONDON, ON N5Y 1A8",Ahmed Shaldan El Nagar,,
3051,"S. LONDON,WHITE OAKS MALL",N6E 1V4,1105 Wellington Rd,London,CA,ON,Wellington Rd & Bradley Ave,519-681-1484,519-681-7500,42.933167,-81.224036,EST,03/16/1994 00:00,3996,"WHITE OAKS, 1105 WELLINGTON ROAD SOUTH, LONDON, ON N6E 1V4",Eiman Zourob,,
3049,"E. LONDON, ARGYLE MALL, ON",N5W 6G4,330 Clarke Rd,E. London,CA,ON,Clark Rd & Dundas St,519-451-8470,519-455-8910,43.001279,-81.17191,EST,03/16/1994 00:00,3988,"330 CLARK ROAD, LONDON, ON N5W 6G4",Ola El-Chabib,,
1211,"MISSISSAUGA (WEST), ON",L5M 4Z5,5100 Erin Mills Pky,Mississauga West,CA,ON,Erin Mills Town Centre,,905-820-3796,43.558546,-79.709658,EST,12/08/2016 00:00,305925,"5100 Erin Mills Pkwy, ON L5M 4Z5",Tuy Nguyen ,,
3654,ERIN MILLS MISS. ONT,L5L 5Z5,2160 Burnhamthorpe Rd W,Mississauga,CA,ON,Erin Mills Parkway & Burnhamthorpe Rd,,905-608-0922,43.545249,-79.684781,EST,01/29/2004 00:00,300131,"2160 BURNHAMTHORPE ROAD WEST, MISSISSAUGA, ON L5L 5Z5",Akil Adamjee,,
1061,"HEARTLAND, MISSISSAUGA,ON",L5V 2N6,800 Matheson Blvd W,Mississauga,CA,ON,Matheson Blvd & Mavis Rd,905-817-9693,905-817-9688,43.606981,-79.692546,EST,06/11/2008 00:00,301365,"800 MATHESON BOULEVARD WEST, MISSISSAUGA, ON L5V 2N6",Roshni Chaudhari,,
3054,"MEADOWVALE, ONTARIO",L5N 8E1,3155 Argentia Rd,Meadowvale,CA,ON,Argentia Rd & Winston Churchill Blvd,905-821-8222,905-821-8150,43.595036,-79.788765,EST,03/16/1994 00:00,34948,"3155 ARGENTIA ROAD, MISSISSAUGA, ON L5N 8E1",Charles Fung,,
1126,MISSISSAUGA EAST,L4X 1L4,1500 Dundas St E,Mississauga,CA,ON,Dixie Rd & Dundas St E,,905-615-1018,43.608961,-79.578717,EST,01/27/2012 00:00,302648,"1500 DUNDAS STREET EAST, MISSISSAUGA, ON L4X 1L4",Rami Frjo,,
3071,"PETERBOROUGH, ONTARIO",K9H 7E2,1002 Chemong Rd,Peterborough,CA,ON,Chemong Road & Milroy Drive,705-742-5566,705-742-5090,44.324864,-78.334495,EST,03/16/1994 00:00,26567,"1002 CHEMONG ROAD, PETERBOROUGH, ON K9H 7E2",Ana Liza Caparas,,
1162,PETERBOUROUGH (S),K9J 1Z9,950 Lansdowne St W,Peterborough,CA,ON,Lansdowne St. W. & The Parkway,,705-876-9617,44.285044,-78.344184,EST,10/12/2012 00:00,5835,"950 LANSDOWNE STREET WEST, PETERBOROUGH, ON K9J 1Z9",Ely Jane Hong,,
1208,COQUITLAM,V3B 5R9,2929 Barnet Hwy,Coquitlam,CA,BC,COQUITLAM CENTRE MALL,,778-284-3310,49.279143,-122.800115,PST,02/25/2016 00:00,33946,"COQUITLAM CENTRE 2929 BARNET HWY, COQUITLAM, BC V3B 5R5",Jun Hwan Yoo,,
1207,SURREY (SW),V4E 2B1,7155 120 St,Delta,CA,BC,Scottsdale Centre,,604-595-3617,49.133436,-122.892211,PST,02/25/2016 00:00,33945,"7155 120 ST, DELTA, BC V4E 2B1",Jasdev Johal,,
1206,MAPLE RIDGE,V2X 8T1,11850 224 St,Maple Ridge,CA,BC,HANEY PLACE MALL,,778-306-9936,49.21802,-122.5998,PST,12/03/2015 00:00,33935,"11850 224 ST, MAPLE RIDGE, BC V2X 8S1",Thanh Thai,,
1119,Mission,V2V 0C6,31956 Lougheed Hwy,Mission,CA,BC,Lougheed Hwy. & Wren St,,604-820-0048,49.131645,-122.340098,PST,07/20/2012 00:00,28687,"31956 LOUGHEED HWY, MISSION, BC V2V 0C6",Tejinder Bhatt,,
1192,New Westminster(C),V3L 3C2,610 Sixth St,New Westminster,CA,BC,Royal City Centre S.C.,,604-395-8481,49.21325,-122.9216,PST,11/12/2015 00:00,33903,"610 SIXTH ST, NEW WESTMINSTER, BC V3L 3C2",Azin Movahhed,,
5777,"NEW WESTMINSTER, BC",V3M 5X2,805 Boyd St,New Westminster,CA,BC,Boyd St & Hwy 91,604-524-1264,604-524-1291,49.191004,-122.950713,PST,11/13/2003 00:00,20188,"805 BOYD ST, NEW WESTMINSTER, BC V3M 5X2",Atul Dutt,,
3057,"N VANCOUVER, B. C.",V7P 1S2,925 Marine Dr,North Vancouver,CA,BC,Marine Drive & Hanes Ave.,604-984-3441,604-984-6830,49.322602,-123.098615,PST,03/16/1994 00:00,15236,"CAPILANO MALL, 925 MARINE DRIVE, NORTH VANCOUVER, BC V7P 1S2",Amanjeet Taggar,,
1018,"PORT ALBERNI, BC",V9Y 8K1,3355 Johnston Rd (hwy 4),Port Alberni,CA,BC,Johnston Road & Cherry Creek Road,250-720-0916,250-720-0912,49.267456,-124.781136,PST,01/27/2005 00:00,21047,"3355 JOHNSTON RD, PORT ALBERNI, BC V9Y 8K1",Stineli Taniegra,,
1112,"PORT COQUITLAM., BC",V3B 0G6,2150 Hawkins St,Port Coquitlam,CA,BC,Lougheed Highway& Freemont Street,,604-472-1225,49.253898,-122.736099,PST,07/22/2011 00:00,26843,"2150 HAWKINS ST, PORT COQUITLAM, BC V3B 0G6",Pavan Bhatti,,
3651,"PRINCE GEORGE, BC",V2N 6Z4,6565 Southridge Ave,Prince George,CA,BC,Ospika Blvd & Yellowhead Hwy,250-906-3206,250-906-3203,53.86404,-122.78381,PST,11/14/2002 00:00,18906,"6565 SOUTHRIDGE AVE, PRINCE GEORGE, BC V2N 6Z4",Akhlaq Hakim,,
3652,"RICHMOND (N), BC",V6X 0N1,9251 Alderbridge Way,Richmond,CA,BC,Alderbridge Way & Garden City Rd,,604-288-4395,49.177354,-123.126324,PST,10/27/2016 00:00,34559,"9251 ALDERBRIDGE WAY, RICHMOND, BC V6X 0N1",Young Jin Kang,,
5834,"TERRACE, BC",V8G 5L5,4427 Hwy 16 W,Terrace,CA,BC,Highway 16 W & Keith Rd,,250-615-4728,54.5111,-128.58,PST,01/29/2004 00:00,20533,"4427 16 HWY E, RR 3, TERRACE, BC V8G 5L5",Leah Pritchard,,
1181,TSAWWASSEN,V4M 0B2,5143 Canoe Pass Way,Tsawwassen,CA,BC,Tsawwassen Commons,,778-783-5380,49.042862,-123.081527,PST,01/26/2017 00:00,34770,"5143 CANOE PASS WAY, TSAWWASSEN, BC V4M 0B2",Janet Ha,,
3123,"S. BARRIE, ON",L4N 9H5,35 Mapleview Dr W,Barrie,CA,ON,Highway 400 & Molson Park Dr W,705-728-1638,705-728-9122,44.332703,-79.686072,EST,11/22/1994 00:00,35348,"35 MAPLEVIEW DRIVE WEST, BARRIE, ON L4N 9H5",Monique Battaglia,,
3122,"BELLEVILLE, ON",K8N 4Z5,274 Millennium Pky,Belleville,CA,ON,Highway 401 & Highway 62,613-966-9770,613-966-9466,44.194913,-77.395419,EST,04/01/1995 00:00,31716,"274 MILLENIUM PARKWAY, BELLEVILLE, ON K8N 4Z5",Bala Suman Puligilla ,,
1001,"BOWMANVILLE, ON",L1C 0K5,2320 Hwy 2,Bowmanville,CA,ON,GREEN RD & ONTARIO KINGS HIGHWAY,,905-623-0110,43.911481,-78.716598,EST,06/11/2010 00:00,301937,"2320 HIGHWAY # 2, BOWMANVILLE, ON L1C 0K5",Emilija Tasevska,,
3170,"BURLINGTON N., ON",L7M 5B4,4515 Dundas St,Burlington,CA,ON,Appleby Line & Dundas St W (Hwy 5),,905-331-0027,43.40573,-79.810821,EST,01/29/2004 00:00,300128,"4515 DUNDAS STREET WEST, RR#1, BURLINGTON , ON L7R 3X4",Ik Sun Chong,,
3152,"CAMBRIDGE, ONTARIO",N1R 8K5,22 Pinebush Rd,Cambridge,CA,ON,Hwy #401 & Hespeler Rd (# 24),519-624-7461,519-624-7467,43.409917,-80.326279,EST,10/30/1998 00:00,37044,"22 PINEBUSH ROAD, CAMBRIDGE, ON N1R 8K5",Michael Tsandelis,,
3024,"DRYDEN, ONTARIO",P8N 0A2,Hwy # 17 E,Dryden,CA,ON,HWY 17 EAST & DUKE STREET,807-223-5577,807-223-7190,49.7824,-92.8144,CST,03/16/1994 00:00,35196,"HIGHWAY #17 EAST, DRYDEN, ON P8N 2Z4",Pavan Poluri,,
3034,"GEORGETOWN, ONTARIO, RELO 0408",L7G 4B1,300 Guelph St,Georgetown,CA,ON,Highway 7 & Sinclair Ave,905-873-3021,905-873-0400,43.648068,-79.896891,EST,03/16/1994 00:00,303194,"GEORGETOWN MARKET PLACE, 300 GUELPH STREET, GEORGETOWN, ON L7G 4B2",Mahmoud Hamid,,
1199,GUELPH (S),N1G 5L4,175 Stone Rd W,Guelph,CA,ON,Edinburgh Road S. and Stone Road W.,,519-821-0618,43.52241,-80.232951,EST,08/04/2016 00:00,305671,"175 Stone Road West, Guelph, ON N1G 5L4",Renu Choudhury,,
3144,GUELPH ONTARIO,N1H 1G8,11 Woodlawn Rd W,Guelph,CA,ON,Woodlawn Ave & Woolwich St,519-767-5125,519-767-1600,43.564906,-80.282466,EST,11/08/2006 00:00,300957,"11 WOODLAWN ROAD WEST, GUELPH, ON N1H 1G8",Mat Manoj,,
3045,"KITCHENER, ONTARIO",N2C 1X1,2960 Kingsway Dr,Kitchener,CA,ON,Highway 8 & Fairway Road South,519-894-0636,519-894-6600,43.424248,-80.441409,EST,03/16/1994 00:00,3848,"FAIRVIEW PARK, 2960 KINGSWAY DRIVE, KITCHENER, ON N2C 1X1",Faheem Ahmed,,
1007,"KITCHENER (W), ON",N2E 4E2,1400 Ottawa St S,Kitchener,CA,ON,Fischer-Hallman Rd & Ottawa St S,,519-745-2297,43.710983,-80.520172,EST,09/23/2004 00:00,300353,"1400 OTTAWA STREET SOUTH UNIT E, KITCHENER , ON N2E 4E2",Jorrell Balatbat,,
1111,"WATERLOO WEST., ON",N2N 0B1,100 The Boardwalk,Kitchener,CA,ON,IRA Needles Blvd. & University Avenue West,,519-745-1800,43.432783,-80.55939,EST,11/19/2010 00:00,302147,"100 THE BOARDWALK, K ITCHENER, ON N2N 0B1",Shamsher Johal,,
3053,"MARKHAM, ONTARIO",L3R 4M9,5000 Hwy 7,Markham,CA,ON,Highway 7 & Mccowan Road,905-477-6063,905-477-6060,43.8716,-79.2903,EST,03/16/1994 00:00,35204,"MARKVILLE S.C., 5000 HIGHWAY #7, MARKHAM, ON L3R 4M9",Irene Sing,,
1109,MARKHAM East,L6B 0S1,500 Copper Creek Dr,Markham,CA,ON,9th Line & Copper Creek Dr,,905-472-9582,43.870667,-79.216012,EST,09/17/2010 00:00,302155,"500 COPPER CREEK DRIVE, MARKHAM, ON L6B 0S1",Tharshan Manoharan,,
3160,"NIAGARA FALLS, ONTARIO / Relo 0403",L2G 0J5,7481 Oakwood Dr,Niagara Falls,CA,ON,Oakwood Dr & Q.E.W.,905-371-3335,905-371-3999,43.067661,-79.117843,EST,10/01/1998 00:00,37052,"7481 OAKWOOD DRIVE, NIAGARA FALLS, ON L2E 6S5",Ugo Nwankwo,,
3063,"NORTH BAY, ONTARIO",P1B 2H3,1500 Fisher St,North Bay,CA,ON,Hwy 17 & Fisher St,,705-472-1704,46.312922,-79.443014,EST,03/16/1994 00:00,35212,"1500 FISHER STREET, NORTH BAY, ON P1B 2H3",Erwin Dela Cruz ,,
3010,"C. CALGARY, MCLEOD MALL",T2J 0P7,9650 Macleod Trail Se,Calgary,CA,AB,Macleod Trail & Southland Dr,403-252-7835,403-258-3988,50.967121,-114.071474,MST,03/16/1994 00:00,50,"MACLEOD MALL S.C., 9650 MACLEOD TRAIL S.E. CALGARY, AB. T2J 0P7",DARREN HOLTZ,,
1089,"CALGARY DEERFOOT, AB",T2H 0B8,7979-11 St Se,Calgary,CA,AB,Deerfoot Trail & Heritage Meadows Way,,403-301-2051,50.98499,-114.045162,MST,01/22/2010 00:00,2254,"7979 - 11 STREET S.E., CALGARY, AB. T2H 0B8",Marjoriet Manuel,,
3012,"E. CALGARY, MARLBOROUGH",T2A 2K2,3800 Memorial Dr,Calgary,CA,AB,Memorial Dr & 36 St,403-272-8896,403-235-2352,51.053385,-113.977246,MST,03/16/1994 00:00,53,"MARLBOROUGH MALL, 3835 MEMORIAL DR. N.E., CALGARY, AB. T2A 2K2",Nabeel Moolla,,
1136,CALGARY EAST HILLS,T2A 4X7,255 East Hills Blvd Se,Calgary,CA,AB,17 Ave SE & Stoney Trail SE,,403-387-0850,51.038678,-113.909915,MST,03/28/2014 00:00,2784,"255 East Hills Boulevard S.E. Calgary, AB T2A 4XY",Elsayed Aly,,
3013,"N. CALGARY, DEERFOOT MALL",T2E 9B7,1110 57th Ave N E,Calgary,CA,AB,57 Ave & 11 St Ne,403-730-0988,403-730-0990,51.108334,-114.038888,MST,03/16/1994 00:00,1108,"1110-57TH AVE., N.E. CALGARY , AB. T2E 9B7",Hany Girguis,,
3011,"NW. CALGARY, NORTHLAND",T2L 2K1,5005 Northland Dr N W,Calgary,CA,AB,Crowchild Trail & Shaganappi Trail,403-288-0711,403-247-8585,51.097118,-114.141445,MST,03/16/1994 00:00,60,"NORTHLAND VILLAGE S.C., 5005 NORTHLAND DR. N.W., CALGARY, AB. T2J 0P7",Jennifer Cheung,,
5726,"CALGARY, ALBERTA",T3G 5T4,8888 Country Hills Blvd Nw,Calgary,CA,AB,Country Hills Blvd & Royal Oak Dr,403-567-1512,403-567-1502,51.153888,-114.218808,MST,10/02/2003 00:00,1678,"#200, 8888 COUNTRY HILLS BLVD. NW, CALGARY, AB. T3G 5T4",Matthew Yeung,,
3151,"S. CALGARY, ALBERTA",T2Y 3S4,100-310 Shawville Blvd S E,Calgary,CA,AB,162 Ave Se & Shawville Blvd,403-201-5426,403-201-5415,50.899908,-114.061838,MST,11/13/1998 00:00,1346,"100-310 SHAWVILLE BLVD. S.E. CALGARY, AB. T2Y 3S4",Barbara Skrajny,,
3650,"CALGARY SOUTH EAST, AB",T2Z 4J2,4705 130 Ave Se,Calgary,CA,AB,Deefoot Trail & 130th Ave,403-726-0433,403-726-0430,50.930082,-113.966065,MST,11/14/2002 00:00,1596,"4705 -130TH AVENUE, CALGARY, AB. T2Z 4J2",Trishia Tat,,
3009,"W. CALGARY, WESTBROOK",T3C 1S3,1212 37th St S W,Calgary,CA,AB,Bow Trail & 37 Street,403-249-8904,403-242-2205,51.041217,-114.14115,MST,03/16/1994 00:00,38,"WESTBROOK PLAZA, 1212 - 37TH ST. S.W., CALGARY, AB. T3C 1S3",ALLAN ZAN,,
3105,"TORONTO, NORTH PARK",M6L 1A5,1305 Lawrence Ave W,Toronto,CA,ON,Lawrence Ave & Keele St,416-249-8487,416-244-1171,43.709849,-79.474096,EST,03/16/1994 00:00,3905,"N. PARK PLAZA, 1305 LAWRENCE AVENUE WEST, NORTH YORK, ON M6L 1A5",Isha Patel ,,
3153,"ORILLIA, ONTARIO",L3V 0B5,175 Murphy Rd,Orillia,CA,ON,Sw Corner Hwy 11 & Hwy 12,705-325-7452,705-325-7403,44.61571,-79.445723,EST,10/02/1998 00:00,37036,"175 MURPHY ROAD, ORILLIA, ON L3V 0B5",Uchenna Onwuocha ,,
3161,"OSHAWA N, ON",L1K 0A6,1471 Harmony Rd N,Oshawa,CA,ON,TAUNTON RD & HARMONY RD N,,905-404-6581,43.944357,-78.847754,EST,10/05/2000 00:00,38708,"1471 HARMONY ROAD NORTH, OSHAWA , ON L1H 7K5",Tharseekan Manoharan,,
3186,"PICKERING, ONTARIO",L1V 4H7,1899 Brock Rd,Pickering,CA,ON,Brock Rd & Pickering Pkwy,905-619-9591,905-619-9588,43.844713,-79.068804,EST,11/30/2000 00:00,38820,"1899 BROCK ROAD, PICKERING, ON L1V 4H7",Chun (John) Loe,,
3195,"RICHMOND HILL, ON",L4S 1P3,1070 Major Mackenzie Dr E,Richmond Hill,CA,ON,Major Mackenzie Dr & Bayview Ave,905-883-5305,905-737-3457,43.876716,-79.409169,EST,08/09/2001 00:00,39340,"1070 MAJOR MACKENZIE DRIVE EAST, RICHMONDHILL , ON L4S 1P3",Nixon Tran,,
1116,RICHMOND HILL SOUTH,L4B 4V5,255 Silver Linden Dr,Richmond Hill,CA,ON,Hightech Road And Silver Linden Drive,,905-747-0628,43.841957,-79.414797,EST,11/12/2010 00:00,302102,"255 SILVER LINDEN DRIVE, RICHMOND HILL, ON L4B 4V5",Junecyl Quimbo,,
3082,"SARNIA, ONTARIO",N7S 6M8,1444 Quinn Dr,Sarnia,CA,ON,Highway 40 & Exmouth Street,519-542-5509,519-542-4272,42.98827,-82.346798,EST,03/16/1994 00:00,3939,"1444 QUINN DRIVE, SARNIA, ON N7S 6M8",Alana Szafron,,
3155,"SAULT STE. MARIE, ONTARIO",P6B 4Z9,446 Great Northern Rd,Sault Ste. Marie,CA,ON,Great Northern Rd. & 2nd Line,705-945-8364,705-253-9522,46.539471,-84.319014,EST,01/30/2003 00:00,40628,"446 GREAT NORTHERN ROAD, SAULT STE. MARIE, ON P6B 4Z9",Niall O'Brien,,
3111,"SCARBOROUGH EAST, ON",M1B 3C3,799 Milner Ave,Scarborough,CA,ON,Morningside Ave & Milner Ave,416-281-4643,416-281-2929,43.798226,-79.201849,EST,03/16/1994 00:00,35252,"799 MILNER AVENUE, SCARBOROUGH, ON M1B 3C3",Peter Chang,,
3635,"C. SCARBOROUGH, ONTARIO",M1P 4P5,300 Borough Dr,Scarborough,CA,ON,Highway #401 & Mccowan Road,416-290-1926,416-290-1916,43.77543,-79.253935,EST,07/26/2001 00:00,39276,"SCARBOROUGH TOWN CENTRE 300 BOROUGH DRIVE , ON M1P 4P5",Judy Wang,,
1080,"SCARBOROUGH, ON",M1V 5P7,5995 Steeles Ave E,Scarborough,CA,ON,Markham Rd & Steeles Ave E,416-298-2578,416-298-1210,43.833794,-79.256721,EST,01/17/2009 00:00,301500,"5995 STEELES AVENUE EAST, SCARBOROUGH, ON M1V 5P6",Isidro Wong,,
3159,"W. SCARBOROUGH, ON",M1L 2L9,1900 Eglinton Ave E,Scarborough,CA,ON,Eglinton Ave & Pharmacy Ave,416-615-2702,416-615-2027,43.728729,-79.29436,EST,08/28/1998 00:00,36876,"1900 EGLINTON AVENUE EAST, SCARBOROUGH , ON M1L 2L9",Safina Hassam ,,
1117,Scarborough South,M1J 2H1,3132 Eglinton Ave E,Scarborough,CA,ON,Markham Rd & Eglinton Ave E,,416-265-2355,43.742081,-79.226403,EST,01/27/2012 00:00,302647,"3132 EGLINTON AVENUE EAST, SCARBOROUGH, ON M1J 2H1",Kevin Im ,,
3088,"E ST. CATHARINES, LINCOLN",L2M 6P3,525 Welland Ave,St. Catharines,CA,ON,Welland Ave & Bunting Rd,905-685-6569,905-685-4100,43.176034,-79.211694,EST,03/16/1994 00:00,4036,"LINCOLN MALL, 525 WELLAND AVENUE, ST. CATHARINES, ON L2M 6P3",Zubin Shah,,
1164,ST. CATHARINES (C),L2T 2K9,"221 Glendale Ave,",St. Catharines,CA,ON,,905-646-1914,905-682-3003,43.1359555,-79.2251901,EST,10/19/2012 00:00,35444,"285 GENEVA STREET, ST. CATHARINES, ON L2N 2G1",Manisha Upadhyay,,
3096,"STONEY CREEK, ON ",L8E 0G2,510 Centennial Pkwy N,Hamilton,CA,ON,Highway 20 & Highway 9,905-561-9449,905-561-7600,43.242302,-79.753643,EST,03/16/1994 00:00,4077,"510 CENTENNIAL PARKWAY NORTH, STONEY CREEK, ON L8E 0G2",Chi Mgbemena,,
1105,"SUDBURY SOUTH, ON",P3E 0C5,2416 Long Lake Rd,Sudbury,CA,ON,Highway 66 & Longlake Rd,,705-523-1300,46.44169,-81.00541,EST,01/22/2010 00:00,301855,"2416 LONG LAKE ROAD, SUDBURY, ON P3E 5H5",Everett Dawson,,
3124,"THUNDER BAY, ON",P7B 3Z7,777 Memorial Ave,Thunder Bay,CA,ON,Memorial Ave & Central Ave,833-812-5545,807-346-9441,48.412428,-89.240537,EST,04/01/1995 00:00,31732,"777 MEMORIAL AVENUE, THUNDER BAY, ON P7B 3Z7",Murray Parker,,
1165,THUNDER BAY (S),P7E 5S2,1101 Arthur St W,Thunder Bay,CA,ON,Arthur St W & Thunder Bay Expy,833-812-5538,807-473-8035,48.380819,-89.306037,EST,11/23/2012 00:00,302980,"1101 ARTHUR STREET WEST, THUNDER BAY, ON P7E 5S2",Angelica Rubio,,
1166,Thunder Bay North,P7B 1K6,1020 Dawson Rd,Thunder Bay,CA,ON,Dawson Rd & Thunder Bay Expy,833-812-5539,807-345-8490,48.452484,-89.256325,EST,10/26/2012 00:00,11791,"1020 DAWSON ROAD, THUNDER BAY, ON P7B 5G6",Grace Tan,,
3070,"PENTICTON, BC",V2A 7J2,275 Green Ave W,Penticton,CA,BC,Skaha Lake Rd & Green Ave,250-493-6677,250-493-8396,49.463062,-119.590021,PST,03/16/1994 00:00,15954,"PEACHTREE MALL, 275 WEST GREEN AVE, PENTICTON, BC V2A 7J2",Cameron Needham,,
1050,"AIRDRIE, AB",T4B 3G5,2881 Main St Se,Airdrie,CA,AB,Main St & Big Hill Springs Rd,,403-945-1295,51.261562,-114.006036,MST,01/26/2006 00:00,1856,"2881 MAIN STREET SW, AIRDRIE, AB. T4B 3G5",TOMMY FUNG,,
3000,"AGINCOURT, ONTARIO",M1T 3L3,3850 Sheppard Ave E,Scarborough,CA,ON,Sheppard Ave & Kennedy Rd,416-293-2429,416-291-4100,43.782364,-79.292332,EST,03/16/1994 00:00,3954,"AGINCOURT S.C., 3850 SHEPPARD AVENUE EAST, AGINCOURT, ON M1T 3L4",Johnny Yu,,
1139,Toronto Downsview,M3J 1N4,3757 Keele St,Toronto,CA,ON,Keele St & Finch Ave W,416-633-7593,416-633-0854,43.7579,-79.4874,EST,06/13/2014 00:00,303997,"3757 KEELE ST., TORONTO (DOWNSVIEW) , ON M3J 1M4",Vivithika Jeevanayagam,,
3106,TORONTO (DUFFERIN MALL),M6H 4A9,900 Dufferin St,Toronto,CA,ON,Bloor St & Dufferin St,416-532-3361,416-537-2561,43.656186,-79.434842,EST,03/16/1994 00:00,16113,"DUFFERIN MALL, 900 DUFFERIN STREET, TORONTO, ON M6H 4A9",Parabhjot Khabra,,
1150,Toronto DOWNTOWN (E),M4M 3G6,1000 Gerrard St E,Toronto,CA,ON,Gerrard St E & Jones Ave,,416-461-8778,43.668635,-79.338302,EST,01/25/2013 00:00,302945,"1000 GERRARD STREET EAST, TORONTO, ON M4M 3G6",Vishal  Fumtiwala,,
1151,TORONTO (SHERIDAN),M3M 1A4,2202 Jane St,North York,CA,ON,Jane St. & Wilson Ave.,,416-243-2363,43.720051,-79.5129,EST,10/19/2012 00:00,302809,"2202 JANE STREET, TORONTO, ON M3M 1A4",Munib Abdulmalik,,
1004,"TORONTO (STOCKYARDS), ON",M6N 4Z5,2525 St Clair Ave W,Toronto,CA,ON,Runnymede & St.Clair Ave,,416-763-7325,43.668278,-79.485925,EST,01/25/2005 00:00,300436,"2525 ST. CLAIR AVENUE  WEST, TORONTO (STOCKYARDS), ON M6N 4Z5",Ramy Banoub,,
3178,TRENTON ON,K8V 5P7,470 2nd Dug Hill Rd,Trenton,CA,ON,Wooler Rd & King's Hwy  2,613-394-6779,613-394-2191,44.092267,-77.601853,EST,10/01/1999 00:00,37884,"470 - SECOND DUG HILL ROAD, R.R # 4, TRENTON, ON K8V 5P7",Joanna Armena,,
3156,"WATERLOO, ONTARIO",N2V 0A4,335 Farmers Market Rd Unit 101,Waterloo,CA,ON,Hwy 86 & King St,519-746-3793,519-746-6700,43.5116,-80.5507,EST,01/17/2009 00:00,301498,"335 FARMERS MARKET ROAD, WATERLOO, ON N2V 0A4",Jorrell Balatbat,,
1156,WATERLOO CENTRE,N2J 2J9,70 Bridgeport Rd E,Waterloo,CA,ON,Weber St. N. & Bridgeport Rd. E.,519-885-4220,519-746-1378,43.469173,-80.515139,EST,10/19/2012 00:00,302981,"70 BRIDGEPORT ROAD, WATERLOO, ON N2J 2J9",Avril-Anne Hulbert,,
3115,"E. WINDSOR GATEWAY PLAZA, ON",N8T 1E6,7100 Tecumseh Rd E,Windsor,CA,ON,Tecumseh Rd E & Lauzon Pkwy,519-945-1154,519-945-3065,42.314761,-82.943096,EST,03/16/1994 00:00,4028,"7100 TECUMSEH ROAD, EAST, WINDSOR , ON N8T 1E6",Zeel Shah,,
1081,"VAUGHAN (W), ON",L4H 0R9,8300 Hwy 27,Woodbridge,CA,ON,Hwy 27 & Langstaff Intersection,905-851-3894,905-851-4648,43.786907,-79.6283,EST,01/17/2009 00:00,301499,"8300 HIGHWAY 27, WOODBRIDGE, ON L4H 0R9",Saima Khatoon,,
1135,Cochrane,T4C 0W5,15 Quarry Street West,Cochrane,CA,AB,Griffin Road W. & Centre Ave.,403-851-3043,403-851-3040,51.1842,-114.469,MST,01/24/2014 00:00,2770,15 Quarry Street West,Jeamy Concepcion,,
1028,"DRUMHELLER, AB",T0J 0Y0,1801 S Railway Ave Box 1960,Drumheller,CA,AB,Highway 10 & 19 St East,403-820-7741,403-820-7744,51.4451,-112.682,MST,01/26/2006 00:00,1899,"1801 SOUTH RAILWAY AVENUE, DRUMHELLER, AB. T0J 0Y0",HASSAN MONZAVI,,
1122,EDMONTON NW ALBANY,T6V 1J6,16940 127 St Nw,Edmonton,CA,AB,167 Ave NW & 127 St NW,,780-457-4366,53.631101,-113.544231,MST,01/27/2012 00:00,2448,"16940-127<sup>th</sup> Street NW Edmonton, AB T6V 1B1",George Meleka,,
3026,"E. EDMONTON, CAPILANO S.C",T6A 0A1,5004 98 Ave Nw,Edmonton,CA,AB,101ave & 50th St,780-469-4469,780-466-2002,53.539465,-113.418907,MST,03/16/1994 00:00,214,"CAPILANO SHOPPING MALL, 50TH ST. & 101 AVE., EDMONTON, AB. T6A 0A2",Natalia Chai,,
1182,EDMONTON KINGSWAY,T5G 3A6,1 Kingsway Gdn Mall,Edmonton,CA,AB,109 ST NW AND PRINCESS ELIZABETH AVE NW,,780-642-4326,53.5601,-113.50601,MST,10/20/2022 00:00,2474,"1 Kingsway Garden Mall, Edmonton, AB, T5G 3A6",Balaram Gajra,bjgajra.s01182.ca@wal-mart.com,
3028,"NE EDMONTON, LONDONDERRY",T5Y 3B5,13703 40th St N W,Edmonton,CA,AB,137th Ave & 40th St,780-476-1324,780-476-4460,53.599036,-113.401396,MST,03/16/1994 00:00,248,"13703-40TH ST. NORTH WEST, EDMONTON, AB. T5Y 3B5",Shilpa Sharma,,
1146,EDMONTON (NORTHGATE),T5E 5R8,9499 137 Ave Nw,Edmonton,CA,AB,137 Ave. Nw & 97 St. Nw,,780-406-8807,53.597216,-113.4867,MST,10/19/2012 00:00,2469,"9402 135 Ave NW. Edmonton, AB. T5E 4E3",Daniel Robinson,,
3029,"S. EDMONTON, ALBERTA",T6N 0A9,1203 Parsons Rd N W,Edmonton,CA,AB,13 Avenue N.W & Parsons Rd N.W,780-465-1595,780-463-6030,53.440642,-113.48053,MST,03/16/1994 00:00,1099,"1203 PARSONS ROAD NW, EDMONTON, AB. T6N 0A9",ADRIENNE WONG,,
1094,"EDMONTON, AB",T6W 0L7,6110 Currents Dr Nw,Edmonton,CA,AB,Currents Dr & Windermere Blvd NW,,780-438-1190,53.438864,-113.601963,MST,01/21/2009 00:00,2158,"6110 CURRENTS DRIVE N.W., EDMONTON, AB. T6W 0L7",Safia Chaudhry,,
3027,"W. EDMONTON, MAYFIELD COM",T5S 2V9,18521 Stony Plain Rd Nw,Edmonton,CA,AB,Stony Plain Rd & 184th St,,780-487-8626,53.539131,-113.645579,MST,03/16/1994 00:00,236,"18521 STONY PLAIN RD. NW. , EDMONTON WEST , AB. T5S 2V9",Nada Abdelaal,,
1149,EDMONTON (MEADOWLARK),T5R 5X1,156 87 Ave Nw,Edmonton,CA,AB,87 Avenue NW & 156 Street NW,,780-483-4522,53.5208,-113.593648,MST,10/26/2012 00:00,2468,"100 MEADOWLARK SHOPPING CTR. 156 ST & 87 AVE NW, EDMONTON, AB. T5R 5X1",Alexander Teha,,
1138,EDMONTON SE,T6T 0X2,775 Tamarack Way Nw,Edmonton,CA,AB,Whitemud Drive & 17th ST,,780-643-3010,53.4755,-113.367,MST,01/29/2015 00:00,2862,"775 Tamarack, Way NW, Edmonton, AB. T6T 1H9",Denver Bodnar,,
1187,EDMONTON (SSE),T6X 1X2,110 Watt Common Sw,Edmonton,CA,AB,50 ST SW & ELLERSLIE RD SW,,780-670-3450,53.422167,-113.421527,MST,02/19/2015 00:00,2863,"110 Watt Common SW, Edmonton, AB. T6X 1X2",Scott Weinkauf,,
1145,EDMONTON (SOUTH PARK),T6J 5M8,3931 Calgary Trail Nw,Edmonton,CA,AB,,780-433-2575,780-437-7468,53.473387,-113.495686,MST,10/12/2012 00:00,2471,"Southpark Village 3931 Calgary Trail South Edmonton, AB T6J 5M8",TIMOTHY WONG,,
3129,"HANOVER, ON",N4N 3B8,1100 10th St,Hanover,CA,ON,Highway #4 & 24th St,519-364-0645,519-364-0867,44.156083,-81.002136,EST,11/15/2001 00:00,39684,"1100 - 10TH STREET, HANOVER, ON N4N 3B8",Yusuf Suida,,
1159,Hawkesbury,K6A 3S5,1550 Cameron St,Hawkesbury,CA,ON,Benjamin St. & Cameron St.,,613-632-3455,45.593237,-74.600039,EST,10/12/2012 00:00,36204,"1550 CAMERON STREET, HAWKESBURY, ON K6A 2L7",Andre Gauthier,,
3134,"KANATA,ONTARIO",K2T 1B6,500 Earl Grey Dr,Kanata,CA,ON,Highway 417 & Terry Fox Dr,613-599-1343,613-599-6765,45.310865,-75.913884,EST,03/29/1996 00:00,32708,"500 EARL GREY DRIVE, KANATA, ON K2T 1B6",Marica Buljan,,
1118,"KANATA SOUTH, ON",K2S 0T7,5357 Fernbank Rd,Stittsville,CA,ON,Terry Fox Drive & Fernbank Road,,613-831-2636,45.274329,-75.872296,EST,08/17/2012 00:00,302898,"5357 FERNBANK ROAD, KANATA, ON K2X 1B6",Navdeep Singh ,,
3041,"KAPUSKASING, ONTARIO",P5N 2X7,350 Government Rd E,Kapuskasing,CA,ON,Hwy 11 & Burnelleville Road,877-705-3351,705-335-6111,49.399723,-82.377325,EST,03/16/1994 00:00,300859,"350 GOVERNMENT ROAD, P.O. BOX 190, KAPUSKASING, ON P5N 2Y3",Henry Odai,,
1047,"KEMPTVILLE, ON",K0G 1J0,340 Colonnade Dr,Kemptville,CA,ON,Colonnade Dr & French Settlement Rd,613-258-0599,613-258-6295,45.028284,-75.629408,EST,01/28/2011 00:00,302184,"340 COLONNADE DRIVE. KEMPTVILLE, ON K0G 1J0",Scott Chen ,,
5854,"KENORA, ON",P9N 4J1,24 Miikana Way Unit # 1,Kenora,CA,ON,Mikana Way & Hwy 17 East,833-807-4681,807-468-6379,49.757204,-94.472656,CST,01/25/2005 00:00,300438,"24 MIIKANA WAY, UNIT #1, KENORA, ON P9N 4J1",Alana Miller,,
3164,"LEAMINGTON, ONTARIO",N8H 3C5,304 Erie St S,Leamington,CA,ON,Highway #18 & Erie Ave,519-326-8747,519-326-3900,42.035593,-82.600992,EST,11/12/1999 00:00,37916,"304 ERIE STREET SOUTH, LEAMINGTON, ON N8H 3C5",Srikanth Etikala,,
3066,"BAYSHORE SHOPPING CENTRE, OTTAWA",K2B 8C1,100 Bayshore Dr,Ottawa,CA,ON,Richmond Road & Bayshore Drive,613-829-0777,613-828-5482,45.347884,-75.807461,EST,03/16/1994 00:00,304932,"LINCOLN FIELDS S.C., 1350 RICHMOND ROAD, OTTAWA, ON K2B 7Z3",Bhupesh Gupta,,
1200,OTTAWA (C),K1H 7X6,2277 Riverside Dr,Ottawa,CA,ON,Billings Bridge Shopping Centre,,613-737-6897,45.384757,-75.679865,EST,05/05/2016 00:00,305153,"2277 RIVERSIDE DRIVE , ON K1H 7X6",Ahmed Mohamed Aly,,
1031,"OTTAWA EAST, ON",K1G 0Z3,450 Terminal Ave,Ottawa,CA,ON,Terminal Ave & Trainyards Dr,613-562-3225,613-562-0500,45.413726,-75.651251,EST,09/20/2006 00:00,300921,"450 TERMINAL AVENUE, OTTAWA  SOUTH, ON K1G 0Z3",Dragan Todorovic,,
1158,GLOUCESTER,K1J 9L3,1980 Ogilvie Rd,Gloucester,CA,ON,Queensway & Blair Road,,613-842-0111,45.43177,-75.610321,EST,09/21/2012 00:00,35644,"1980 OGILVIE ROAD, UNIT 171, GLOUCESTER, ON K1J 9L3",Siva Vemulamanda,,
1110,"OTTAWA SW., ON",K2C 3G1,1375 Baseline Rd,Ottawa,CA,ON,Baseline Rd & Clyde Avenue,,613-224-2664,45.363806,-75.737554,EST,01/28/2011 00:00,302185,"1375 BASELINE ROAD, OTTAWA, ON K2C 3G1",Suchdev Kalsi,,
3067,"OWEN SOUND, ONTARIO",N4K 0E2,1555 18th Ave E,Owen Sound,CA,ON,,519-371-0120,519-371-6900,44.574447,-80.912929,EST,03/16/1994 00:00,3921,"1555 18th AVENUE EAST, OWEN SOUND, ON N4K 6Y3",April Mae Serafica,,
3171,"PEMBROKE, ON",K8A 8P7,1108 Pembroke St E,Pembroke,CA,ON,Highway 148 & Angus Campbell Rd,613-732-0111,613-735-4997,45.817749,-77.079736,EST,11/12/1999 00:00,37924,"1108 PEMBROKE STREET EAST, PEMBROKE, ON K8A 7R4",Michelle Baltazar,,
3078,"RENFREW, ONTARIO",K7V 0B4,980 O'brien Rd,Renfrew,CA,ON,O'brien St & Wrangler Rd,613-432-0845,613-432-4676,45.4846,-76.7096,EST,03/16/1994 00:00,35228,"980 O'BRIEN ROAD, RR#1, RENFREW, ON K7V 3Z4",John Songolo,,
1060,"ROCKLAND, ON",K4K 0B5,3001 Richelieu St,Rockland,CA,ON,County Road & Poupart,,613-446-5730,45.53257,-75.306828,EST,11/07/2007 00:00,301210,"3001 RICHELIEU STREET, ROCKLAND, ON K4K 0B5",Alison Trellert ,,
5811,"SMITHS FALLS, ONT",K7A 5B8,114 Lombard St,Smiths Falls,CA,ON,Hwy 15 & Ferrara Dr,,613-284-0838,44.892097,-76.030459,EST,01/29/2004 00:00,300132,"114 LOMBARD STREET, SMITHS FALLS , ON K7A 5B8",Ashwin Juneja or Darshanaben Patel,,
3197,"ST. THOMAS, ON",N5P 1G4,1063 Talbot St Unit # 60,St. Thomas,CA,ON,Talbot St & First Ave,519-637-7088,519-637-7100,42.781662,-81.170599,EST,10/04/2001 00:00,39500,"1063 TALBOT STREET, UNIT #60, ST. THOMAS, ON N5P 1G4",Vihar Shah,,
1038,"STRATHROY, ON",N7G 4G2,150 Carroll St E Rr 1,Strathroy,CA,ON,Highway 81 & Carroll Street,,519-245-7200,42.949337,-81.607627,EST,01/19/2006 00:00,300700,"150 CARROLL STREET, EAST, RR 1, STRATHROY, ON N7G 3H3",Derek Trainor,,
5831,"THORNHILL, ON",L4J 0A7,700 Centre St,Thornhill,CA,ON,Bathurst Street & Centre Street,905-709-9294,905-709-4494,43.812049,-79.451857,EST,11/07/2007 00:00,301213,"700 CENTRE STEET, THORNHILL, ON L4J 0A7",Hassanali Gulamhusein,,
3104,"TIMMINS, ONTARIO",P4R 1N7,1870 Riverside Dr Rr 2,Timmins,CA,ON,Highway 101 & Mcbride St,705-267-3101,705-267-6451,48.472512,-81.397724,EST,03/16/1994 00:00,35244,"1870 RIVERSIDE DRIVE, TIMMINS, ON P4N 7C3",Lynne Skinner,,
1064,"WALLACEBURG, ON",N8A 1R9,60 Mcnaughton Ave Unit # 16,Wallaceburg,CA,ON,Highway 40 (Country Fair Mall),519-627-0910,519-627-8840,42.586583,-82.383775,EST,11/07/2007 00:00,301211,"60 McNAUGHTON AVEUNE, UNIT #16, WALLACEBURG, ON N8A 1R9",Charles Nzekwe,,
3120,"WOODSTOCK, ONTARIO",N4S 9A2,499 Norwich Ave,Woodstock,CA,ON,Norwich Ave & Julianna Dr,519-539-5644,519-539-5120,43.115591,-80.737774,EST,03/16/1994 00:00,16741,"499 NORWICH AVENUE, WOODSTOCK, ON N4S 9A2",Jennifer Cruz,,
3126,"GODERICH, ON",N7A 3X8,35400 Huron Rd Rr2,Goderich,CA,ON,Highway 8 East,519-524-7839,519-524-5060,43.731689,-81.687315,EST,10/28/1995 00:00,32388,"35400 HURON ROAD, GODERICH, ON N7A 3X8",Omar Al-Sheikhly,,
5806,"FORT FRANCES, ONT",P9A 2X6,1250 King ' S Hwy,Fort Frances,CA,ON,Kings Hwy & Mcirvine Rd,,807-274-1373,48.607271,-93.437201,CST,01/29/2004 00:00,300130,"1250 KING'S HIGHWAY, FORT FRANCES , ON P9A 2X6",Vera Bhulasi,,
3133,"COBOURG, ONTARIO",K9A 5W8,73 Strathy Rd,Cobourg,CA,ON,Highway 401 & Strathy Rd,905-377-0927,905-373-1239,43.975207,-78.199076,EST,08/22/2002 00:00,40156,"73 STRATHY ROAD, COBOURG , ON K9A 5J7",Sherwin Pizarras ,,
3006,"BROCKVILLE, ONTARIO",K6V 7N4,1942 Parkedale Ave,Brockville,CA,ON,Hwy 401 & North Augusta Rd,613-342-1430,613-342-9293,44.61378,-75.685519,EST,03/16/1994 00:00,15974,"1942 PARKEDALE AVE., BROCKVILLE, ON K6V 9Z1",Akash Luhadia,,
1072,"AMHERSTBURG, ON",N9V 3L4,400 Sandwich St S,Amherstburg,CA,ON,Fort Malden Mall (Sandwich Street),519-736-1964,519-736-5600,42.097186,-83.108112,EST,01/23/2008 00:00,301267,"400 SANDWICH STREET SOUTH, AMHERSTBURG, ON N9V 3L4",Rebecca Dass,,
3638,"BARRHAVEN, ONT",K2J 4G8,3651 Strandherd Dr,Nepean,CA,ON,STRANDHERD DR. & GREENBANK RD,613-823-8717,613-823-8714,45.271118,-75.741444,EST,11/15/2001 00:00,39676,"3651 STRANDHERD DRIVE, BARRHAVEN, ON K2J 4G8",Tahmineh Pourlotfali,,
3147,"GRANDE PRAIRIE, AB",T8V 7H1,11050-103 Ave,Grand-prairie,CA,AB,Highway 16a & Campsite Rd,780-513-3745,780-513-3740,55.171403,-118.828103,MST,09/26/1997 00:00,1285,"11050 - 103 AVE. GRANDE PRAIRIE, AB. T8V 7H1",Janet Pratt,,
3657,"LEDUC, ALBERTA",T9E 8J7,5302 Discovery Way,Leduc,CA,AB,Hwy 2 & 50th Ave,780-986-1995,780-986-7574,53.267487,-113.570704,MST,08/22/2002 00:00,1574,"5302 DISCOVERY WAY , LEDUC , AB. T9E 8J7",Craig MacAlpine,,
3168,LLOYDMINSTER AB,T9V 2X3,4210 70th Ave,Lloydminster,CA,AB,Highway #16 & 70th Ave,780-875-9856,780-875-4777,53.275982,-110.047686,MST,08/20/1999 00:00,1384,"4210-70TH AVE., LLOYDMINSTER, AB. T9V 0B5",Ashley Chartier,,
5708,"OKOTOKS, AB",T1S 2C8,500-201 Southridge Dr,Okotoks,CA,AB,Hwy.  2a/7 & Southridge Dr,403-995-1375,403-995-1371,50.704533,-113.970487,MST,11/14/2002 00:00,1595,"500-201 SOUTHRIDGE DR. OKOTOKS, AB. T1S 2C8",Jeremy Chan,,
1084,"OLDS, AB",T4H 0A2,Unit 400-6900 46th St,Olds,CA,AB,Highway 27 (46th St) & Proposed 67th Ave,403-556-7202,403-556-3844,51.797671,-114.140251,MST,01/23/2008 00:00,2125,"UNIT 400, 6900 - 46 STREET, OLDS, AB. T4H 0A2",Marie Goudie,,
3075,"N RED DEER, PARKLAND MALL",T4N 4C7,6375 50th Ave,Red Deer,CA,AB,50 Ave & 63 St N,403-347-1123,403-346-6650,52.283472,-113.814495,MST,03/16/1994 00:00,417,"RED DEER CENTRE, 6375 - 50TH AVENUE, RED DEER, AB. T4N 4C7",Shaimaa Ali,,
3194,"S. RED DEER, ALBERTA",T4R 3A2,2010 50th Ave,Red Deer,CA,AB,50th Ave & Hwy 2,403-358-5849,403-358-5842,52.236516,-113.819879,MST,11/16/2000 00:00,1465,"2010 50TH AVENUE, RED DEER, AB. T4R 3A2",Faheem Ahmed,,
3154,"SHERWOOD PARK,AB",T8B 1N1,239 Wye Rd,Sherwood Park,CA,AB,Wye Rd & Sherwood Dr,780-464-5107,780-464-2105,53.510898,-113.31587,MST,08/28/1998 00:00,1329,"239 WYE ROAD, SHERWOOD PARK , AB. T8B 1N1",Ravi Chawla,,
1123,Sherwood Park N,T8H 0P5,400-7000 Emerald Dr,Sherwood Park,CA,AB,Yellowhead Hwy & Clover Bar Rd,,780-464-0318,53.569077,-113.280318,MST,01/27/2012 00:00,2449,"400 - 7000 EMERALD DRIVE SHERWOOD PARK, AB T8H 0P5",Steven Dubbelboer,,
1030,"SLAVE LAKE, AB",T0G 2A4,1500 Main St,Slave Lake,CA,AB,Highway 2 & Main St,,780-849-9579,55.2689,-114.78,MST,11/24/2005 00:00,1844,"601-1500 MAIN STREET, SLAVE LAKE, AB. T0G 2A4",Nithesha Bambila,,
3030,"ESTEVAN, SASKATCHEWAN",S4A 2A5,413 Kensington Ave Box 609,Estevan,CA,SK,Kensington Ave,833-812-5540,306-634-2110,49.142792,-102.96905,CST,03/16/1994 00:00,287,"413 KENSINGTON AVENUE, ESTEVAN, SK S4A 2A5",Krista Missal,,
1065,"KINDERSLEY, SK",S0L 1S0,710 11th Ave E,Kindersley,CA,SK,DITSON DRIVE & HIGHWAY 7,639-539-3004,306-463-1330,51.474065,-109.144046,CST,01/24/2007 00:00,627,"710-11TH AVENUE EAST, KINDERSLEY, SK S0L 1S0",Tracey Sarrasin,,
3173,"MOOSE JAW, SK",S6J 1L8,551 Thatcher Dr E,Moose Jaw,CA,SK,Thatcher Dr & Highland Rd,639-223-0974,306-693-3218,50.411821,-105.521794,CST,09/03/1999 00:00,323,"551 THATCHER DRIVE EAST, MOOSE JAW, SK S6J 1L8",Candace Newkirk,,
3073,"PRINCE ALBERT, SK",S6V 8E3,800 15 St E,Prince Albert,CA,SK,15th St E & 6th Ave,807-223-5577,306-764-9770,53.1994,-105.73,CST,03/16/1994 00:00,298,"800 15TH STREET EAST, PRINCE ALBERT, SK S6V 8E3",Jason Zawerucka,,
3077,S. REGINA,S4W 0B7,4500 Gordon Rd,Regina,CA,SK,Gordon Rd & Lewvan Dr,639-221-4234,306-584-0061,50.407778,-104.644793,CST,03/16/1994 00:00,301,"4500 GORDON ROAD, REGINA, SK S4W 0B7",Mina Gobran,,
3179,"E. REGINA, SK",S4V 3A6,2150 Prince Of Wales Dr,Regina,CA,SK,Prince Of Wales Dr & Victoria Ave,639-221-4236,306-780-3700,50.443935,-104.533349,CST,11/16/2000 00:00,447,"2150 PRINCE OF WALES DRIVE, REGINA, SK S4V 3A6",Vinit Patel,,
3084,SASKATOON (N),S7N 4Y1,1706 Preston Ave N,Saskatoon,CA,SK,Preston Ave  & Circle Dr,639-220-0018,306-373-2300,52.150282,-106.620773,CST,03/16/1994 00:00,304,"1706 PRESTON AVENUE NORTH, SASKATOON, SK S7N 4Y1",Ashley Promhouse,,
5878,SASKATOON SOUTH,S7T 0B6,3035 Clarence Ave S,Saskatoon,CA,SK,Clarence Ave & Brand Rd,833-812-5549,306-653-8200,52.087308,-106.641184,CST,01/24/2007 00:00,626,"3035 CLARENCE AVE SOUTH, SASKATOON, SK S7T 0B6",Evan Froc,,
3083,SASKATOON WEST,S7M 1L2,225 Betts Ave,Saskatoon,CA,SK,Se Corner Of Hwy 7 & Hwy 14,639-220-0780,306-382-5454,52.125497,-106.761866,CST,03/16/1994 00:00,302,"225 BETTS AVENUE, SASKATOON, SK S7M 1L2",Mark Noel,,
3099,"SWIFT CURRENT,SK",S9H 0E5,1800 22nd Ave Ne,Swift Current,CA,SK,Highway 4 & Highway 1,844-812-5542,306-778-3489,50.30711,-107.775319,CST,03/16/1994 00:00,308,"1800 22ND AVENUE NE, SWIFT CURRENT, SK S9H 0E5",Darlis Pogany,,
3176,"YORKTON, SK",S3N 4C6,240 Hamilton Rd,Yorkton,CA,SK,Highway #9 North & Hamilton Rd,844-812-5546,306-782-9820,51.206438,-102.446801,CST,08/20/1999 00:00,314,"240 HAMILTON ROAD, YORKTON, SK S3N 4C6",Joanne Chicoine,,
3737,"ATHOLVILLE, NEW BRUNSWICK",E3N 5C3,4 Jagoe St,Atholville,CA,NB,Val-D'amour Rd & Beauvista Dr,506-753-7152,506-753-7105,47.99333,-66.702404,AST,11/14/2002 00:00,P220,"4 JAGOE STREET, ATHOLVILLE, NB E3N 5C3",Line Cormier,,
3003,BATHURST,E2A 6X2,900 St Anne St,Bathurst,CA,NB,Sainte Anne Street & Highway 11,506-546-3672,506-546-0500,47.626434,-65.687254,AST,03/16/1994 00:00,P31,"900 ST. ANNE STREET,  BATHURST NB E2A 6X2",Mario Roy,,
3056,MONCTON NEW BRUNSWICK,E1A 5B2,477 Paul St,Dieppe,CA,NB,Paul Street & Champlain S,506-855-6011,506-857-2500,46.097457,-64.761708,AST,03/16/1994 00:00,P137,"477 PAUL ST, DIEPPE, NB E1A 5B2",Joshua Sharpe,,
1033,"EDMUNDSTON, NB",E3V 3T3,805 Victoria St,Edmundston,CA,NB,Victoria St & Route 144,,506-735-3939,47.394482,-68.344564,AST,11/12/2004 00:00,P234,"805 VICTORIA STREET, EDMUNDSTON, NB E3V 3T3",Claudette Melanson,,
3032,FREDERICTON NEW BRUNSWICK,E3C 1A3,1399 Regent St,Fredericton,CA,NB,1399 Regent St. & Prospect St.,506-452-0870,506-452-1511,45.93262,-66.663325,AST,03/16/1994 00:00,P21,"1399 REGENT STREET FREDERICTON, NB E3C 1A3",Bukky Lumor,,
1067,"FREDERICTON NORTH, NB",E3A 0T3,125 Two Nations Cross,Fredericton,CA,NB,Two Nations Crossing & St. Marys Street,506-444-7624,506-444-9186,45.98602,-66.627044,AST,03/14/2007 00:00,P243,"125 TWO NATIONS CROSSING, FREDERICTON, NB  E3A 0T3",Anna-Leigh Synder,,
1013,"GRAND FALLS, NB",E3Y 1A3,494 Ch Madawaska,Grand Falls,CA,NB,Station Road,,506-473-6837,47.05891,-67.75398,AST,11/12/2004 00:00,P233,"494 RUE MADAWASKA STREET, GRAND FALLS, NB E3Y 1A3",Nicole Lidstone,,
5833,"MIRAMICHI, NB",E1V 7T9,200 Douglastown Blvd,Miramichi,CA,NB,Hwy 8 & Hwy 11,506-778-9482,506-778-8224,47.03736,-65.492649,AST,01/25/2005 00:00,P236,"200 DOUGLASTOWN BOULEVARD, MIRAMICHI, NB E1V 7T9",Wael Rezkalla,,
3659,"MONCTON WEST, NB",E1C 0G3,25 Plaza Blvd,Moncton,CA,NB,Wheeler Blvd & Mapleton Rd,506-853-7664,506-853-7394,46.114459,-64.828821,AST,10/03/2002 00:00,P218,"25 PLAZA BOULEVARD, MONCTON, NB E1C 0G3",Stephen Kelloway ,,
1175,SAINT JOHN (W),E2M 4X5,621 Fairville Blvd,Saint John,CA,NB,Fairville Blvd. & Catherwood St.,,506-693-1668,45.256353,-66.092791,AST,10/12/2012 00:00,P193,"651 FAIRVILLE BLVD, SAINT JOHN, NB E2M 4X5",Natalie Ghazizadeh,,
3091,SAINT JOHN NEW BRUNSWICK,E2J 4Z2,450 Westmorland Rd,Saint John,CA,NB,Westmorland Rd & Mcallister Dr,506-634-6650,506-634-6600,45.307773,-66.020273,AST,03/16/1994 00:00,P20,"450 WESTMORLAND RODA, SAINT JOHN, NB E2J 4Z2",Paula Forbes,,
1052,"SUSSEX, NB",E4E 1Y6,80 Main St,Sussex,CA,NB,80 Main St.,506-432-9333,506-432-1814,45.724909,-65.528055,AST,01/18/2007 00:00,P242,"80 MAIN ST, SUSSEX, NB E4E 1Y6",Rebecca Titus,,
1043,"WOODSTOCK, NB",E7M 5R5,430 Connell St,Woodstock,CA,NB,Connell Road & Transcanadian Highway,,506-324-8099,46.173002,-67.604757,AST,01/19/2006 00:00,P240,"430 CONNELL STREET, WOODSTOCK, NB E7M 5R5",Kelly Pryor,,
3015,"CARBONEAR, NL",A1Y 1B3,120 Columbus Dr,Carbonear,CA,NL,Goff Ave & Columbus Drive,709-596-0269,709-596-5009,47.726361,-53.245355,NST,03/16/1994 00:00,CA-260,"TC SQUARE, 120 COLUMBUS DRIVE, CARBONEAR, NL A1Y 1B3",Fauz Malik,,
3018,"CLARENVILLE, NL",A5A 2C3,11 Shoal Harbour Dr,Clarenville,CA,NL,Manitoba Drive & Balbo Drive,709-466-1737,709-466-3014,48.167822,-53.987111,NST,03/16/1994 00:00,CL-262,"11 SHOAL HARBOUR DRIVE, CLARENVILLE, NL A5A 2C3",Brittney Courtney,,
3185,CORNER BROOK NEWFOUNDLAND,A2H 1R4,16 Murphy Sq,Corner Brook,CA,NL,St. Marks Ave & Lewin Parkway,709-634-2454,709-634-2310,48.9595,-57.9167,NST,03/01/2001 00:00,CB-316,"16 MURPHY SQUARE, CORNER BROOK, NL A2H 1R4",Shane Flight,,
3033,"GANDER, NEWFOUNDLAND",A1V 1W8,55 Roe Ave P O Box 448,Gander,CA,NL,Cooper Boulevard & Roe Avenue,709-256-8800,709-256-7581,48.95839,-54.589739,NST,03/16/1994 00:00,GA-265,"55 ROE AVENUE, P.O. BOX 448, GANDER, NL A1V 1W8",Tyler Duhart,,
3036,GRAND FALLS NEWFOUNDLAND,A2A 1X3,19 Cromer Ave,Grand Falls-windsor,CA,NL,Cromer Ave. & Harris Ave.,709-489-1587,709-489-5739,48.946365,-55.654064,NST,03/16/1994 00:00,GF-261,"19 CROMER AVENUE, GRAND FALLS-WINDSOR, NL A2A 1X3",Ian Meade,,
1035,"LABRADOR CITY, NL",A2V 2W7,500 Vanier Ave,Labrador City,CA,NL,Vanier Ave & Adams Nichol Hwy,709-944-3424,709-944-3378,52.948268,-66.921947,AST,01/27/2005 00:00,LC-339,"500 VANIER DRIVE, LABRADOR CITY, NL A2V 2W7",Jennifer McLoughlan-Greene,,
1026,"MARYSTOWN, NL",A0E 2M0,272 Mcgettigan Blvd,Marystown,CA,NL,Route 210 & Ville Marie Dr,709-279-2929,709-279-3022,47.180833,-55.148112,NST,01/25/2005 00:00,MT-338,"272 MCGETTIGAN BLVD, P.O. BOX 40, MARYSTOWN, NL A0E 2M0",Jennifer King,,
3093,"MOUNT PEARL, NL",A1N 5J5,60 Merchant Dr,Mount Pearl,CA,NL,Pitts Memoral Dr & Ruby Line,709-364-1351,709-364-4214,47.501958,-52.811836,NST,03/16/1994 00:00,SJ-079,"60 MERCHANT DRIVE, MOUNT PEARL, NL A1N 5J5",Deanne Cumby,,
3196,"E. ST. JOHN'S, NL",A1A 5N6,90 Aberdeen Ave,St. John's,CA,NL,Aberdeen Ave & Stavanger Dr,709-738-4366,709-738-4350,47.619467,-52.718248,NST,03/22/2001 00:00,SJ-317,"90 ABERDEEN AVE., ST. JOHN'S, NL A1A 5N6",Laura Samson,,
3092,"C. ST. JOHN'S, NL",A1B 0C7,75 Kelsey Dr,St. John's,CA,NL,Kenmount Rd & Bifurcation Rd,709-722-6707,709-722-5094,47.557923,-52.781347,NST,03/16/1994 00:00,SJ-078,"75 KELSEY DRIVE, ST. JOHN'S, NL A1B 0C7",Kristen Walsh,,
3095,STEPHENVILLE NEWFOUNDLAND,A2N 3A7,42 Queen St,Stephenville,CA,NL,Queen Street & Main Street,709-643-4192,709-643-5018,48.54599,-58.575365,NST,03/16/1994 00:00,ST-263,"42 QUEEN STREET, STEPHENVILLE, NL A2N 3A7",Henry White,,
5789,"AMHERST, NS",B4H 4R7,46 Robert Angus Dr,Amherst,CA,NS,Robert Angus Dr & South Albion St,,902-661-3476,45.814995,-64.198948,AST,10/02/2003 00:00,815,"46 ROBERT ANGUS DRIVE, AMHERST, NS B4H 4R7",Jonathan Kennedy or Stephanie Barnhill,,
1003,"BRIDGEWATER, NS",B4V 4H2,60 Pine Grove Rd,Bridgewater,CA,NS,Highway 103 & Route 10,,902-543-8680,44.39983,-64.536771,AST,01/25/2005 00:00,833,"60 NEW PINE GROVE ROAD, BRIDGEWATER, NS B4V 4H2",Daniel Rudolf,,
3636,"HALIFAX CENTRE, NS",B3L 4W4,6990 Mumford Rd,Halifax,CA,NS,Mumford Rd & Chebucto Rd,902-454-8303,902-454-7990,44.64641,-63.621008,AST,10/04/2001 00:00,780,"6990 MUMFORD ROAD, HALIFAX, NS B3L 4W4",Novalee MacDonald,,
1178,North Sydney,B2A 3R7,116 King St,North Sydney,CA,NS,King St. & Peacekeepers Way,,902-794-6021,46.215354,-60.264945,AST,10/12/2012 00:00,995,"116 KING STREET, NORTH SYDNEY, NS B2A 3R7",Jason Morrison,,
3101,SYDNEY NOVA SCOTIA,B1P 7H9,80 Sydney Port Access Rd,Sydney,CA,NS,Grand Lake Rd & Trunk 125 Sydney Bypass,902-562-4311,902-562-1110,46.151098,-60.146985,AST,03/16/1994 00:00,871,"80 SYDNEY PORT ACCESS ROAD, SYDNEY, NS B1P 7H9",Glenda Martin,,
3100,SYDNEY NOVA SCOTIA,B1S 1P4,65 Keltic Dr,Sydney,CA,NS,Kings Rd & Keltic Dr,902-562-9856,902-562-3353,46.110006,-60.225974,AST,03/16/1994 00:00,633,"65 KELTIC DRIVE, SYDNEY RIVER, NS B1S 1P4",Lydia Fraser,,
3162,CHARLOTTETOWN PEI,C1E 2E5,80 Buchanan Dr,Charlottetown,CA,PE,University Ave & North River Rd,902-628-4604,902-628-4600,46.262549,-63.152548,AST,06/25/1999 00:00,CI-133,"80 BUCHANAN DR, CHARLOTTETOWN, PEI C1E 2E5",Candace MacAdam,,
3644,"SUMMERSIDE, PEI",C1N 5J4,511 Granville St,Summerside,CA,PE,Granville St (Between Hwy #2 & Walker St),902-432-3573,902-432-3570,46.417616,-63.778092,AST,11/15/2001 00:00,CI-134,"511 GRANVILLE ST, SUMMERSIDE, PEI C1N 5J4",Nicole Fraser,,
3121,"YELLOWKNIFE, NWT",X1A 3T3,313 Old Airport Rd,Yellowknife,CA,NT,Borden & Old Airport Rd,833-768-1146,867-873-4545,62.449078,-114.406591,MST,03/16/1994 00:00,,313 OLD AIRPORT  ROAD,Enenche Oche,,
3118,"N. WINNIPEG, GARDEN CITY",R2V 4J6,2370 Mcphillips St,Winnipeg,CA,MB,Mcphilips St & Court Ave,204-220-4243,204-334-2273,49.958588,-97.149587,CST,03/16/1994 00:00,12777,"2370 McPHILLIPS STREET, WINNIPEG, MB R2V 4J6",Janina Paluch,,
3117,"W. WINNIPEG, MANITOBA",R3K 2G6,3655 Portage Ave,Winnipeg,CA,MB,Portage Ave & Buchanan Blvd,204-282-9385,204-897-3410,49.882151,-97.312745,CST,03/16/1994 00:00,12766,"3655 PORTAGE AVE, WINNIPEG, MB R3K 2G6",Shannon Trapp,,
3119,"S. WINNIPEG, ST.VITAL CTR",R2M 5E6,# 54-1225 St Mary ' S Rd,Winnipeg,CA,MB,St. Mary's Rd & Bishop Grandin Blvd,204-220-4240,204-256-7027,49.830623,-97.109791,CST,03/16/1994 00:00,47304,"1225 ST. MARY'S ROAD, WINNIPEG, MB R2M 5E6",Precious Reyes,,
1204,WINNIPEG (SE),R2J 2M8,35 Lakewood Blvd,Winnipeg,CA,MB,Southdale Centre,,204-220-1055,49.85444,-97.07632,CST,01/28/2016 00:00,34658,"35 LAKEWOOD BLVD., WINNIPEG, MB R2J 2M8",Salil Prashar,,
3177,SW. WINNIPG MANITOBA,R3P 2M4,1665 Kenaston Blvd,Winnipeg,CA,MB,Kenaston Rd & Mcgillivary,204-488-1560,204-488-2052,49.822826,-97.198046,CST,10/01/1999 00:00,31891,"1665 KENASTON BLVD., WINNIPEG, MB R3P 2M4",Shane Pottle,,
1186,WINNIPEG (GRANT PARK),R3M 1T6,1000 Taylor Ave,Winnipeg,CA,MB,TAYLOR AVE & HARROW ST,,204-992-9750,49.854073,-97.158569,CST,01/29/2015 00:00,34513,"1000 TAYLOR AVENUE, WINNIPEG, MB R3M 1T6",Matthew Newman,,
3116,"C. WINNIPEG, MANITOBA",R3G 3P8,1001 Empress St,Winnipeg,CA,MB,Empress St & Ellice Ave,844-812-5544,204-284-6900,49.896278,-97.193082,CST,03/16/1994 00:00,12722,"1001 EMPRESS STREET, WINNIPEG, MB R3G 3P8",Michael Namaka,,
3107,"E. WINNIPEG, MANITOBA",R2C 3B4,1576 Regent Ave W,Winnipeg,CA,MB,Regent Ave W & Lagimodiere Blvd W,833-812-5543,204-669-3575,49.893557,-97.062737,CST,03/16/1994 00:00,12755,"1576 REGENT AVE W., WINNIPEG, MB R2C 3B4",Todd Laluk,,
1095,"VAUGHAN NW, ON",L4H 3T6,3600 Major Mackenzie Dr W,Vaughan,CA,ON,Mackenzie Drive & Weston Road Intersection (Wonderland),,905-832-4060,43.847421,-79.555843,EST,08/17/2012 00:00,302906,"3600 MAJOR MACKENZIE DRIVE, VAUGHAN, ON L6A 1S1",Chandni Chaudhari,,
3174,"VAUGHAN, ON",L4K 0L4,670 Applewood Cres,Concord,CA,ON,PORTAGE PKWY & APPLEWOOD CRESCENT,905-761-9154,905-761-7262,43.79769,-79.537037,EST,10/22/2020 00:00,308142,"670 APPLEWOOD CRESCENT, ON L4K 4B4",Christopher Lee ,,
1127,MISSISSAUGA (SE),L5G 1H9,515 Lakeshore Rd E,Mississauga,CA,ON,,,905-286-0633,43.566477,-79.571055,EST,05/08/2025 00:00,,,,,
